UBINumber,BusinessDbaName,EffectiveDate,ExpirationDate,Address1,City,State,Zip,ViolationNo,ViolationType,ViolationDate
604 722 583,CLEANING SERVICES USA LLC,04/28/2021,04/28/2023,2038 155TH PL NE APT A236,BELLEVUE,WA,98007,,,
603 056 201,DUCT CLEANING SERVICES,10/20/2010,10/20/2020,3126 SW 342nd ST,FEDERAL WAY,WA,98023,,,
602 965 060,JUDAH CLEANING SERVICE,12/11/2009,12/11/2023,2408 W Lynnwood Dr,LONGVIEW,WA,98632,,,
604 078 288,AAA CLEANING SERVICES LLC,03/31/2017,03/31/2019,3800 W Bridgeport Way Ste A,TACOMA,WA,98466,,,
602 051 803,A1 CLEANING SERVICES INC,03/23/2011,03/23/2019,5215 EAST UPRIVER DR,SPOKANE,WA,99217,,,
603 165 835,ABA CLEANING SERVICES LLC,06/07/2013,06/08/2025,6108 E Portland Ave,TACOMA,WA,98404,,,
603 333 640,ABSOLUTE CLEANING SERVICES,09/17/2013,12/30/2021,2406 NE 139TH ST #S-160,VANCOUVER,WA,98686,,,
604 951 829,ABLE CLEANING SERVICES,08/04/2022,08/04/2024,1033 EAST JUNE DRIVE,MOSES LAKE,WA,98837,,,
,DAILY CLEANING SERVICES,,,,PASCO,WA,,NSAYB00731,CONSTRUCTION INFRACTION,08/25/2022
604 965 627,Cendys Cleaning Services LLC,01/04/2023,01/04/2025,171 Stark Rd,YAKIMA,WA,98908,,,
603 529 136,Champion Cleaning Services LLC,09/11/2015,03/02/2024,8934 ALYSON LANE SOUTHWEST,ROCHESTER,WA,98579,,,
603 591 586,GREYLU CLEANING SERVICES,03/24/2016,03/24/2018,PO BOX 65505,BURIEN,WA,98166,,,
,NED STEVENS CLEANING SERVICES OF WA LLC,,,,FAIRFIELD,WA,,NSACE00940,CONSTRUCTION INFRACTION,07/30/2020
,FRONTLINE CLEANING SERVICES,,,,BURLINGTON,WA,,NBUJD00819,CONSTRUCTION INFRACTION,08/19/2019
602 040 772,ACTION CLEANING SERVICES,01/19/2016,03/11/2024,2009 Iron Street,BELLINGHAM,WA,98225,,,
604 072 265,Boss Cleaning Services LLC,08/16/2017,08/16/2019,PO Box 936,BATTLE GROUND,WA,98604,,,
603 254 748,BLAST CLEANING SERVICES INC,05/02/2019,03/30/2024,PO BOX 1489,SHERWOOD,OR,97140,,,
604 319 165,BRAVOS CLEANING SERVICES LLC,09/12/2018,09/12/2020,4205 AUBURN WAY S,AUBURN,WA,98092,,,
604 039 124,RIVERSIDE CLEANING SERVICES,09/19/2016,09/19/2018,913 E 10TH AVE,KENNEWICK,WA,99336,,,
604 939 741,GENESIS CLEANING SERVICES,04/12/2023,04/12/2025,6535 S L ST,TACOMA,WA,98408,,,
603 214 762,BARROS CLEANING SERVICES,05/07/2013,09/29/2023,18019 32ND AVE SE,Bothell,WA,98012,,,
604 919 687,ALJ CLEANING SERVICES LLC,05/23/2023,05/23/2025,2429 SW HOLDEN ST,SEATTLE,WA,98106,,,
603 158 072,Agustina's Cleaning Services,03/17/2015,03/17/2017,22823 92nd Ave S Apt. N103,KENT,WA,98031,,,
600 242 349,AMERICAN CLEANING SERVICES INC,07/14/1978,12/03/2024,1210 E ISAACS,WALLA WALLA,WA,99362,,,
604 544 643,AVALOS CLEANING SERVICES LLC,01/10/2023,01/10/2025,405 STATE AVE,MARYSVILLE,WA,98270,,,
604 098 292,AMY'S CLEANING SERVICES,02/15/2023,02/15/2025,24120 22ND AVE SOUTH,DES MOINES,WA,98198,,,
604 410 493,DEHAVEN CLEANING SERVICES LLC,07/09/2019,07/09/2021,325 WASHINGTON AVE S #163,KENT,WA,98032,,,
600 277 244,COMMERCIAL CLEANING SERVICES,08/07/1998,07/26/2021,PO BOX 501,WALLA WALLA,WA,99362,,,
604 827 480,DETAILED CLEANING SERVICES LLC,03/03/2022,03/03/2024,3806 N Belmont Rd,COEUR D ALENE,ID,83815,,,
602 641 157,DIANA'S CLEANING SERVICES,07/28/2014,02/11/2023,33 116TH PL SE # A,EVERETT,WA,98208,,,
604 100 549,EXPERT CLEANING SERVICES,03/13/2018,03/13/2020,14213 SE 281ST PLACE,KENT,WA,98042,,,
602 872 898,DAYAS CLEANING SERVICES,12/07/2017,12/07/2019,1224 195TH ST E,SPANAWAY,WA,98387,,,
603 297 447,COURTESY CLEANING SERVICES LLC,03/13/2014,03/13/2024,5904 S TORO RD,KENNEWICK,WA,99338,,,
603 468 267,D&G PNTG & CLEANING SERVICES,08/14/2015,08/14/2021,22221 75TH ST E,BUCKLEY,WA,98321,,,
604 365 798,DANNY'S CLEANING SERVICES LLC,12/04/2018,01/03/2025,1505 S RD 40 E #306,PASCO,WA,99301,,,
604 287 323,DAYAS CLEANING SERVICES,01/14/2019,01/14/2025,2604 20TH AVE SW,PUYALLUP,WA,98371,,,
602 742 135,Davispro Cleaning Services,12/10/2012,12/10/2016,"2324 East Euclid Ave, Ste 103",SPOKANE,WA,99207,,,
604 660 412,DUSTY CLEANING SERVICES LLC,09/30/2020,09/30/2022,4819 West Canal Drive Apt C,KENNEWICK,WA,99336,,,
604 194 586,FUNAX CLEANING SERVICES INC,06/03/2021,06/14/2025,PO BOX 775,GRESHAM,OR,97030,,,
602 659 341,FG Cleaning Services,08/05/2014,08/05/2018,3105 S 47th ST APT H93,TACOMA,WA,98409,,,
603 200 677,A & G CLEANING SERVICES LLC,09/30/2016,09/30/2018,PO BOX 23014,FEDERAL WAY,WA,98093,,,
603 396 600,AUGUSTA CLEANING SERVICES,12/19/2014,12/19/2018,5087 Lincoln Rd,BLAINE,WA,98230,,,
604 809 489,COMFORT CLEANING SERVICES LLC,02/01/2022,02/01/2024,PO BOX 820704,VANCOUVER,WA,98682,,,
604 455 223,EXTREME CLEANING SERVICES LLC,08/20/2019,09/07/2023,914 S 251st ST,DES MOINES,WA,98198,,,
604 036 295,ELITE CLEANING SERVICES,09/26/2022,09/26/2024,4821 36TH ST NE,TACOMA,WA,98422,,,
604 377 092,EDGAR'S CLEANING SERVICES,07/03/2019,07/27/2023,5301 Plomondon st,Vancouver,WA,98661,,,
604 987 589,ELY'S CLEANING SERVICES LLC,01/13/2023,01/13/2025,7511 188TH ST CT E,PUYALLUP,WA,98375,,,
602 803 248,CJ'S CLEANING SERVICES,09/14/2022,09/14/2024,3123 113TH AVE SE,BELLEVUE,WA,98004,,,
602 663 009,EVERETT CLEANING SERVICES,04/01/2014,04/01/2018,8900 8TH AVE W,EVERETT,WA,98204,,,
603 289 328,HOOD CLEANING SERVICES,05/01/2015,05/01/2017,4259 S 173RD ST,SEATAC,WA,98188,,,
603 283 540,KAJENA CLEANING SERVICES LLC,10/17/2016,10/17/2018,3010 NE 147TH ST #3,SHORELINE,WA,98155,,,
603 479 930,KACEY'S CLEANING SERVICES,09/20/2021,09/20/2023,2522 KRISTINE CT,CENTRALIA,WA,98531,,,
604 010 919,KAT'S CLEANING SERVICES,12/02/2016,12/02/2018,710 S GRANITE AVE,GRANITE FALLS,WA,98252,,,
604 048 992,NORA'S CLEANING SERVICES,11/15/2016,11/15/2018,7807 WHITEBLUFF CT,PASCO,WA,99301,,,
603 431 603,KB CLEANING SERVICES,07/18/2019,07/18/2021,20806 NE RICHMOND RD,BRUSH PRAIRIE,WA,98606,,,
605 095 511,KACEY'S CLEANING SERVICES LLP,09/13/2023,09/13/2025,2522 KRISTINE CT,CENTRALIA,WA,98531,,,
604 552 860,KEN CLEANING SERVICES LLC,11/16/2022,11/16/2024,10433 SE KENT-KANGLEY RD #415,KENT,WA,98030,,,
603 607 703,NO REGRETS CLEANING SERVICES,05/06/2016,05/06/2018,10251 W 18TH PLACE,KENNEWICK,WA,99338,,,
603 304 672,IPRO CLEANING SERVICES,10/28/2015,10/28/2025,180 Rock Island Rd,E Wenatchee,WA,98802,,,
604 790 860,J&L CLEANING SERVICES LLC,08/25/2021,08/25/2023,1159 N 61ST AVE,WEST RICHLAND,WA,99353,,,
603 143 789,J & J Roof Cleaning Services,09/15/2011,09/15/2023,9730 18th AVE W,EVERETT,WA,98204,,,
604 978 837,KELIAN CLEANING SERVICES,11/22/2022,11/22/2024,PMB 1130,SEATTLE,WA,98104,,,
604 235 210,MULAN'S CLEANING SERVICES,03/29/2018,03/29/2020,1339 IVY ROAD,BREMERTON,WA,98310,,,
603 377 474,MONSTER CLEANING SERVICES,05/05/2015,11/07/2021,8103 47th AVE NE,MARYSVILLE,WA,98270,,,
603 564 763,NEWBERG CLEANING SERVICES LLC,12/29/2015,01/03/2024,699 GORE RD,KALAMA,WA,98625,,,
,BRIDGETOWN EXTERIOR CLEANING SERVICES,,,,PORTLAND,WA,,NBERU01910,CONSTRUCTION INFRACTION,02/27/2019
604 330 652,N&M CLEANING SERVICES,01/23/2019,01/23/2021,14108 74th Avenue Ct E,PUYALLUP,WA,98373,,,
604 847 513,MIRIAN'S CLEANING SERVICES LLC,01/07/2022,01/07/2024,14928 W THORNE LN SW #19,SEATTLE,WA,98198,,,
601 809 639,LYNNWOOD CLEANING SERVICES,10/12/2016,10/12/2018,PO BOX 731,LYNNWOOD,WA,98036,,,
604 143 340,L&R CLEANING SERVICES LLC,11/27/2017,11/27/2019,8407 Harvard Ct SE,LACEY,WA,98503,,,
602 940 903,Maga Cleaning Services,10/10/2014,10/10/2024,14080 Olympic Dr SE,OLALLA,WA,98359,,,
603 016 842,MBA CLEANING SERVICES LLC,05/10/2013,09/29/2022,11611 55TH AVE NE,MARYSVILLE,WA,98271,,,
603 494 342,MAGIC TOUCH CLEANING SERVICES,08/25/2021,08/25/2025,1515 W 7TH AVENUE,KENNEWICK,WA,99336,,,
603 410 621,A&R TILE/CLEANING SERVICES LLC,11/21/2014,11/21/2018,10114 NE 134TH LANE C-104,KIRKLAND,WA,98034,,,
603 194 808,R & G PRESSURE WASHING LLC,04/03/2012,04/03/2022,2222 55TH ST SE,AUBURN,WA,98092,,,
602 904 940,SKYWAY CLEANING SERVICES,03/05/2012,07/18/2024,4801 S ROXBURY ST APT# C,SEATTLE,WA,98118,,,
603 318 597,SORIANOS CLEANING SERVICES,03/24/2022,03/24/2024,1514 29TH ST SE,AUBURN,WA,98002,,,
603 395 237,SMALL G CLEANING SERVICES LLC,01/08/2016,02/08/2024,609 212th st sw,BOTHELL,WA,98021,,,
604 531 970,PURE CLEANING SERVICES,04/28/2022,04/28/2024,1315 N 18TH ST,MOUNT VERNON,WA,98273,,,
604 929 335,PNJ HOOD CLEANING SERVICES,10/20/2022,10/20/2024,26431 110TH PL SE,KENT,WA,98030,,,
604 861 901,SML CLEANING SERVICES,02/01/2022,02/01/2024,8304 LOPEZ DR,PASCO,WA,99301,,,
604 195 460,PRIME CLEANING SERVICES INC,07/19/2018,07/19/2020,2821 146TH AVE E,SUMNER,WA,98390,,,
603 031 966,PROCLEAN CLEANING SERVICES,12/16/2014,12/16/2016,16212 BOTHELL EVERETT HWY F258,BOTHELL,WA,98012,,,
604 195 460,PRIME RENOVATIONS,07/02/2019,07/02/2021,2821 146TH AVE E,SUMNER,WA,98390,,,
602 784 832,Online Cleaning Services LLC,08/21/2013,06/10/2024,2689 Hwy 20,MARYSVILLE,CA,95901,,,
604 955 368,XTREME CLEANING SERVICES LLC,10/12/2022,10/12/2024,30634 8TH AVE S,FEDERAL WAY,WA,98003,,,
602 468 316,XTRA HANDS CLEANING SERVICES,10/02/2015,10/02/2017,10106 54TH DR NE,MARYSVILLE,WA,98270,,,
603 522 251,YAYAS PNTG & CLEANING SERVICES,05/12/2016,05/20/2024,4248 S JUNEAU ST,SEATTLE,WA,98118,,,
604 926 146,PETER'S CLEANING SERVICES LLC,07/11/2022,07/11/2024,PO BOX 333,SHAW ISLAND,WA,98286,,,
601 944 711,INDEPENDENT CLEANING SERVICES,07/14/2015,08/16/2019,14150 NE 20 ST #455,BELLEVUE,WA,98007,,,
604 983 859,WONDER CLEANING SERVICES LLC,10/27/2022,10/27/2024,3001 S 288TH ST TRLR 85,FEDERAL WAY,WA,98003,,,
604 783 945,SUNSHINE CLEANING SERVICES,08/12/2022,08/12/2024,20213 50TH AVE E,SPANAWAY,WA,98387,,,
604 015 080,STUNNING CLEANING SERVICES,07/18/2016,01/02/2021,PO BOX 5075,PASCO,WA,99301,,,
604 204 636,SUPER STAR CLEANING SERVICES,01/31/2018,01/31/2020,27 235TH PL SW,BOTHELL,WA,98021,,,
603 287 593,TKO CLEANING SERVICES LLC,09/16/2013,09/30/2017,4417 1/2 SW DAWSON ST,SEATTLE,WA,98136,,,
604 183 156,TAMI'S CLEANING SERVICES LLC,04/02/2018,04/02/2020,2606 CASCADE PL WEST #15,UNIVERSITY PLACE,WA,98466,,,
604 723 089,CORTES CLEANING SERVICES LLC,,,1225 W CASINO RD APT B4,EVERETT,WA,98204-1521,,,
604 871 625,B3E CLEANING SERVICES LLC,,,2159 S UNDERWOOD CT,KENNEWICK,WA,99337-3637,,,
602 191 632,AMM CLEANING SERVICES,,,12515 LAKE CITY WAY,SEATTLE,WA,98125,,,
604 847 829,ELENAS CLEANING SERVICES LLC,,,1308 S 359TH ST,FEDERAL WAY,WA,98003-7434,,,
603 423 312,EXPRESS CLEANING SERVICES,,,PO BOX 821565,VANCOUVER,WA,98682-0036,,,
601 383 316,NEW IMAGE CLEANING SERVICES IN,,,5614 SEAHURST AVE,EVERETT,WA,98203-0000,,,
605 167 715,GR8 CLEANING SERVICES LLC THE,,,14233 81ST AVE NE,KIRKLAND,WA,98034-5059,,,
601 768 150,"DETAILS CLEANING SERVICES, INC",,,PO BOX 2619,AUBURN,WA,98071-2619,,,
602 663 594,COTY CLEANING SERVICES INC,,,17675 SW FARMINGTON RD PMB 224,BEAVERTON,OR,97007-3208,,,
604 656 101,GENPRO CLEANING SERVICES LLC,,,8110 43RD AVE NE # A,MARYSVILLE,WA,98270-6416,,,
601 929 636,HAPPE CLEANING SERVICES,,,C/O RUDY KLER 2065 1ST AVE E,SPANAWAY,WA,98387,,,
604 000 789,H&K CLEANING SERVICES,,,300 VUEMONT PL NE APT G304,RENTON,WA,98056-4530,,,
601 432 464,A & B CLEANING SERVICES INC.,,,408 W 28TH ST,VANCOUVER,WA,98660,,,
603 341 777,HARVARD CLEANING SERVICES LLC,,,8129 BEVERLY BLVD,EVERETT,WA,98203-6708,,,
603 621 508,ALL WAYS CLEANING SERVICES LLC,,,PO BOX 365,MARYSVILLE,WA,98270-0365,,,
A39 750 800,CLEANING SERVICES,,,803 VANDERCOOK WAY,LONGVIEW,WA,98632,,,
604 608 062,C&K CLEANING SERVICES LLC,,,3715 S 182ND ST APT C119,SEA TAC,WA,98188-4991,,,
604 412 174,LAURAS CLEANING SERVICES LLC,,,ATTN TAXMEDICS 101 S WASHINGTON ST STE C,KENNEWICK,WA,99336-5116,,,
604 114 941,LATINOS CLEANING SERVICES LLC,,,819 MALAGA AVE APT 5,WENATCHEE,WA,98801-6400,,,
602 278 089,NOBLE CLEANING SERVICES INC,,,5111 NACHES HEIGHTS RD,YAKIMA,WA,98908,,,
605 164 616,RUBIOS CLEANING SERVICES LLC,,,1520 S 94TH ST,TACOMA,WA,98444-4274,,,
604 858 647,POPOCA CLEANING SERVICES LLC,,,314 HEMLOCK ST,CENTRALIA,WA,98531-1212,,,
603 275 910,"INTEGRITY CLEANING SERVICES, L",,,12702 E CONNOR RD,VALLEYFORD,WA,99036,,,
603 092 546,DIVINITY CLEANING SERVICES INC,,,ATTN AARON WIRES 317 NE WASHINGTON AVE,CENTRALIA,WA,98532,,,
603 124 991,KC CLEANING SERVICES,,,2735 SW 342ND ST,FEDERAL WAY,WA,98023-7605,,,
603 421 284,L&A CLEANING SERVICES LLC,,,23206 50TH AVE W,MT LK TERRACE,WA,98043-4809,,,
602 073 474,ISLAND CLEANING SERVICES INC,,,PO BOX 127,COUPEVILLE,WA,98239-0127,,,
603 578 553,CREST CLEANING SERVICES LLC,,,325 WASHINGTON AVE S STE 380,KENT,WA,98032-5767,,,
601 351 685,CLEANING SERVICES ETC,,,9330 15TH AVENUE SOUTH NO D,SEATTLE,WA,98108-5106,,,
,,,,,,,,,,
603 041 728,DUNGENESS CLEANING SERVICES LL,,,PO BOX 303,NORTH SAN JUAN,CA,95960,,,
604 129 704,DR FLAWLESS CLEANING SERVICES,,,1207 GOLDFINCH AVE SW,ORTING,WA,98360-8211,,,
602 714 708,C&V CLEANING SERVICES,,,PO BOX 216,CHEHALIS,WA,98532-0216,,,
603 619 270,A LIST CLEANING SERVICES LLC,,,311 W 25TH ST,VANCOUVER,WA,98660-2545,,,
604 973 887,A&M CLEANING SERVICES LLC,,,19941 RHODODENDRON DR E,BONNEY LAKE,WA,98391,,,
,,,,,,,,,,
604 813 770,C I N CLEANING SERVICES LLC,,,1203 N 10TH PL APT 1436,RENTON,WA,98057-5472,,,
603 606 194,ALIMAC PRO INC,08/10/2020,08/10/2024,17403 OSPREY RD,Arlington,WA,98223,,,
,,,,,,,,,,
,,,,,,,,,,
604 310 083,K&C CLEANING SERVICES,,,4112 N WOODLAWN RD,SPOKANE VALLEY,WA,99216-1235,,,
604 832 020,J & J ROOF CLEANING SRVC LLC,03/23/2022,03/23/2024,PO BOX 4406,EVERETT,WA,98204,,,
604 316 584,ZEALOUS CLEANING SERVICES,,,17009 NE 12TH AVE,RIDGEFIELD,WA,98642-5650,,,
604 265 520,GRANADOS CLEANING SERVICES LLC,,,856 CENTRAL AVE S TRLR 18,KENT,WA,98032-6143,,,
,,,,,,,,,,
604 321 111,FABY QUALITY CLEANING SERVICES,,,5911 14TH AVE NE,TULALIP,WA,98271,,,
604 396 203,FISHER CLEANING SERVICES INC,,,PO BOX 2610,LONGVIEW,WA,98632-8651,,,
603 444 284,GO GREEN CLEANING SERVICES LLC,,,1104 122ND PL SW #2,EVERETT,WA,98204-5621,,,
604 425 689,FLORES MA CLEANING SERVICES LL,,,28454 168TH AVE SE UNIT 24,KENT,WA,98042-9405,,,
605 164 438,J&R HOME CLEANING SERVICES LLC,,,909 NW 63RD ST,SEATTLE,WA,98107-2215,,,
604 122 362,NIZAS CLEANING SERVICES LLC,,,30406 PACIFIC HWY S STE D,FEDERAL WAY,WA,98003-5129,,,
604 774 124,RAINBOW CLEANING SERVICES LLC,,,18520 52ND AVE W APT 18,LYNNWOOD,WA,98037-4538,,,
,,,,,,,,,,
604 671 955,SUNFLOWER CLEANING SERVICES L,,,213 ROOSEVELT DR,GRAND COULEE,WA,99133-9795,,,
603 086 609,SPOTLESS CLEANING SERVICES,,,1120 S 25TH ST TRLR 44,MOUNT VERNON,WA,98274-4752,,,
604 362 067,M & E CLEANING SERVICES,,,14104 11TH AVE SW,BURIEN,WA,98166-1402,,,
604 170 342,R & R CLEANING SERVICES,,,601 S BEECH AVE,PASCO,WA,99301-4403,,,
603 020 509,R & Z CLEANING SERVICES,,,1321 E 62ND ST,TACOMA,WA,98404-3535,,,
603 136 145,R & N CLEANING SERVICES,,,8695 GREEN RD,BURLINGTON,WA,98233-6822,,,
605 223 941,M&V CLEANING SERVICES LLC,,,14114 108TH AVE NE,KIRKLAND,WA,98034-4474,,,
,,,,,,,,,,
,,,,,,,,,,
604 159 146,WISH CLEANING SERVICES LLC,,,12829 60TH LN S APT H3,SEATTLE,WA,98178-3597,,,
604 773 817,ROSE QUEEN CLEANING SERVICES L,,,WALTER LUCEN 1520 NE 172ND AVE,PORTLAND,OR,97230-6006,,,
603 425 437,J & K CLEANING SERVICES,,,10226 169TH PL NE,ARLINGTON,WA,98223,,,
603 076 237,LEGACY CLEANING SERVICES,,,8409 44TH ST W,UNIVERSITY PL.,WA,98466-7511,,,
604 833 453,WASHINGTON CLEANING SERVICES L,,,3221 MEADOW AVE N,RENTON,WA,98056-1924,,,
602 579 952,LJ CLEANING SERVICES,,,18666 REDMOND WAY # GG-2056,REDMOND,WA,98052,,,
602 328 900,SPIC N SPAN CLEANING SERVICES,,,3111 132ND ST SE APT C304,EVERETT,WA,98208,,,
602 507 086,T & T CLEANING SERVICES,,,3435 PINEHURST CT,BELLINGHAM,WA,98226,,,
,,,,,,,,,,
604 603 098,THUMBS UP CLEANING SERVICES LL,,,615 SW CITY VIEW STREET,PULLMAN,WA,99163,,,
603 335 733,SKYLAR CLEANING SERVICES LLC,,,3300 VALENTINE LN SE STE A102,PORT ORCHARD,WA,98366-5646,,,
603 531 800,SUPREMA CLEANING SERVICES LLC,,,14725 NE 20TH ST APT D33,BELLEVUE,WA,98007,,,
604 171 012,SIMPLY GREEN CLEANING SERVICES,,,9516 7TH AVE NW,SEATTLE,WA,98117-2127,,,
602 398 373,SANDYS HOUSE CLEANING SERVICES,,,99605 E REATA RD,KENNEWICK,WA,99338,,,
603 273 229,ARLINGTON ROOFING,10/14/2021,10/14/2023,23902 127TH AVE NE,ARLINGTON,WA,98223,,,
603 511 783,PUGET SOUND CLEANING SERVICES,,,3001 S 288TH ST TRLR# 112,FEDERAL WAY,WA,98003,,,
605 279 758,MUST BE NICE CLEANING SERVICES,,,17207 138TH AVENUE CT E,PUYALLUP,WA,98374-9143,,,
604 539 738,J & F CLEANING SERVICES,,,14620 NE 40TH ST APT S411,BELLEVUE,WA,98007-3355,,,
604 899 853,TSL CLEANING SERVICES LLC,,,4826 DIAMOND BLVD SW,LAKEWOOD,WA,98499-3835,,,
603 607 641,VARMEN CLEANING SERVICES LLC,,,201 W OAKVIEW AVE UNIT 45,CENTRALIA,WA,98531-3469,,,
601 169 769,PRO TECH CLEANING SERVICES,,,6727 12TH AVE SW,SEATTLE,WA,98106,,,
603 038 953,THE OLAMS CLEANING SERVICES,,,134 SW 116TH ST #H14,SEATTLE,WA,98146-4322,,,
,,,,,,,,,,
604 159 534,NW 5 STAR CLEANING SERVICES L,,,PO BOX 55,MOUNT VERNON,WA,98273-0055,,,
601 957 690,J & R CLEANING SERVICES INC,,,4502 68TH ST CT NW,GIG HARBOR,WA,98335,,,
A41 337 900,NORTH EAST CLEANING SERVICES,,,9412 NE 136TH,KIRKLAND,WA,98033,,,
604 270 389,PRISMATIC CLEANING SERVS LLC,03/29/2019,03/29/2025,P O Box 3283,FERNDALE,WA,98248,,,
602 698 313,NEW IMAGE CLEANING SERVICES,,,6305 NE 56TH AVE,VANCOUVER,WA,98661-1419,,,
605 316 594,PETO CLEANING SERVICES LLC,,,PO BOX 24623,FEDERAL WAY,WA,98093-1623,,,
,,,,,,,,,,
604 004 811,PERFECTION CLEANING SERVICES L,,,3302 CANTERBURY LN,PASCO,WA,99301,,,
605 162 548,SKYE CLEANING SERVICES LLC,,,11911 E GIBSON RD APT 5,EVERETT,WA,98204-5702,,,
603 456 924,MARALETH CLEANING SERVICES,,,5910 57TH DR NE,MARYSVILLE,WA,98270-9032,,,
603 005 366,MANPOWER CLEANING SERVICES LLC,,,21616 118TH PL SE,KENT,WA,98031,,,
603 574 616,MERCI CLEANING SERVICES LLC,,,1073 SE 326TH ST,FEDERAL WAY,WA,98023,,,
605 333 405,KVJ CLEANING SERVICES LLC,,,5726 NE WYGANT ST,PORTLAND,OR,97218-2653,,,
604 905 634,KRISTAL CLEANING SERVICES,,,24500 RUSSELL RD TRLR 3A,KENT,WA,98032-4247,,,
,,,,,,,,,,
,,,,,,,,,,
604 884 358,LIVYS HOUSE CLEANING SERVICES,,,15232 SE 272ND ST UNIT 102,KENT,WA,98042-4224,,,
,,,,,,,,,,
604 548 717,M&M CLEANING SERVICES LLC,,,18 SE 9TH CIR,BATTLE GROUND,WA,98604-8929,,,
604 777 015,JIHANS CLEANING SERVICES LLC,,,13445 MLK JR WAY S APT A303,SEATTLE,WA,98178-5201,,,
604 608 199,JESSICAS CLEANING SERVICES LLC,,,1204 ROAD 36,PASCO,WA,99301-2742,,,
602 618 876,J D M CLEANING SERVICES INC,,,6951 HANNEGAN RD STE 12,LYNDEN,WA,98264,,,
604 718 360,J&H CLEANING SERVICES INC,,,HEIDI MOCTEZUMA 615 S WALDEMAR AVE,PASCO,WA,99301-4446,,,
604 700 244,MONTES CLEANING SERVICES LLC,,,975 ABERDEEN AVE NE APT H302,RENTON,WA,98056-2893,,,
602 090 330,MR BOB S CLEANING SERVICES L,,,15959 NE 1ST ST,BELLEVUE,WA,98008,,,
604 352 477,JSD CLEANING SERVICES INC,,,2138 PRIEST BRIDGE CT STE 1,CROFTON,MD,21114-2463,,,
604 397 495,JTC CLNNG SRVCS RFNG/GTTRS LLC,03/08/2019,03/16/2025,13413 RIDGEWOOD DR E,BONNEY LAKE,WA,98391,,,
604 472 898,JR CLEANING SERVICES LLC,,,12211 SE 54TH ST,BELLEVUE,WA,98006-2814,,,
602 441 270,JOHNS CLEANING SERVICES INC,,,629 NW RICHMOND BEACH RD,SHORELINE,WA,98177,,,
604 080 769,JORDAN CLEANING SERVICES LLC,,,13710 96TH AVE E,PUYALLUP,WA,98373-5805,,,
602 841 901,AMOS CLEANING SERVICES INC,,,7532 24TH AVE NE,SEATTLE,WA,98115,,,
,,,,,,,,,,
,,,,,,,,,,
604 691 856,GENESIS CLEANING SERVICES LLC,,,NOLBY L MANZANARES 16058 3RD PL S STE A,BURIEN,WA,98148-1493,,,
604 948 443,FSAM CLEANING SERVICES LLC,,,1035 S 136TH ST,BURIEN,WA,98168-2759,,,
602 636 979,G & G CLEANING SERVICES LLC,,,PO BOX 84231,SEATTLE,WA,98124,,,
604 874 919,FRESH FINISH CLEANING SERVICES,,,13401 NE 28TH ST UNIT 218,VANCOUVER,WA,98682-8836,,,
604 388 718,HOLT CLEANING SERVICES LLC,,,18623 135TH ST E,BONNEY LAKE,WA,98391-9580,,,
604 166 524,HISTORIC CLEANING SERVICES LLC,,,10524 BROOK LN SW,LAKEWOOD,WA,98499-1612,,,
604 794 877,GRIZZZ CLEANING SERVICES LLC,,,4073 GILMAN AVE W APT 301,SEATTLE,WA,98199-1558,,,
604 883 060,HAPPY DAY CLEANING SERVICES LL,,,31208 NE 122ND AVE,BATTLE GROUND,WA,98604-9327,,,
,,,,,,,,,,
603 446 161,DORI CLEANING SERVICES LLC,,,13026 4TH AVE NW,SEATTLE,WA,98177-4209,,,
603 480 672,DOUBLE M CLEANING SERVICES LLC,,,70 E JUNIPER ST TRLR 112,OTHELLO,WA,99344-1354,,,
,,,,,,,,,,
601 994 464,ZERINGER CLEANING SERVICES INC,,,22383 PUMA LN NE,POULSBO,WA,98370,,,
604 295 760,D & E CLEANING SERVICES LLC,,,502 RAINIER AVE S STE 103,SEATTLE,WA,98144-1912,,,
605 270 865,EVERGLOW CLEANING SERVICES,,,100 N HOWARD ST STE STE 5450,SPOKANE,WA,99201-0508,,,
604 885 994,CUSTOM CLEANING SERVICES WASHI,,,226 N 7TH ST,MOUNT VERNON,WA,98273-3319,,,
605 164 153,ENEYDAS CLEANING SERVICES LLC,,,24011 49TH PL W,MT LK TERRACE,WA,98043-5603,,,
,,,,,,,,,,
,,,,,,,,,,
603 173 467,CROWNMART CLEANING SERVICES GR,,,311 W CASINO RD APT B201,EVERETT,WA,98204-1773,,,
604 134 951,BUDGET CLEANING SERVICES LLC,,,7207 198TH ST SW,LYNNWOOD,WA,98036-5852,,,
603 319 201,CARDONA CLEANING SERVICES,,,6307 78TH PL NE,MARYSVILLE,WA,98270-6217,,,
604 107 277,BOTTOM 2 TOP CLEANING SERVICES,,,26420 110TH PL SE,KENT,WA,98030-9049,,,
604 332 830,BEYOND CLEANING SERVICES LLC,,,2110 S 90TH ST APT L293,TACOMA,WA,98444-6832,,,
603 160 004,BLUE PACIFIC CLEANING SERVICES,,,22525 SE 64TH PL STE 200,ISSAQUAH,WA,98027,,,
605 220 219,B & M CLEANING SERVICES LLC,,,14320 SE 272ND ST,KENT,WA,98042-8006,,,
604 617 177,HQ CLEANING SERVICES LLC,,,707 SW 156TH ST APT 10,BURIEN,WA,98166-2485,,,
601 732 169,CERTIFIED CLEANING SVCS INC,07/10/2009,03/26/2024,2103 112th Street E,TACOMA,WA,98445,,,
603 320 281,CARDONA CLEANING SERVICES,,,6307 78TH PL NE,MARYSVILLE,WA,98270-6217,,,
,,,,,,,,,,
602 705 316,ARY CLEANING SERVICES LLC,,,12814 15TH PL W,EVERETT,WA,98204,,,
,,,,,,,,,,
603 467 656,AFFINITY CLEANING SERVICES,,,6807 26TH CT SE,LACEY,WA,98503-5322,,,
603 457 666,360 CLEANING SERVICES LLC,,,222 LEE ST SW STE 112,TUMWATER,WA,98512,,,
603 349 834,CESCO CLEANING SERVICES INC,,,2227 MIDWAY LN,BELLINGHAM,WA,98226-1218,,,
604 576 444,24/7 CLEANING SERVICES LLC,,,33422 192ND AVE SE UNIT 83,AUBURN,WA,98092-2269,,,
604 075 097,APEX CLEANING SERVICES LLC,,,7710 LOREN PL,YAKIMA,WA,98908-9234,,,
603 180 415,CJL CLEANING SERVICES INC,,,6105 OCCIDENTAL AVE,YAKIMA,WA,98903,,,
602 882 031,ALWAYS CLEANING SERVICES LLC,,,184 BOBCAT HOLLOW RD,PORT ANGELES,WA,98362-8146,,,
602 839 086,AISHAS CLEANING SERVICES,,,21116 33RD AVE S,SEA TAC,WA,98198-4228,,,
604 090 598,ALPINE CLEANING SERVICES LLP,,,1371 DURAM DR,EAST WENATCHEE,WA,98802-9060,,,
601 877 010,ADVANCED CLEANING SERVICES,,,1152 3RD AVE SUITE B,LONGVIEW,WA,98632,,,
604 467 231,A JIREH CLEANING SERVICES LLC,,,2431 S 248TH ST APT C12 ARTURO JUAREZ GASPAR,KENT,WA,98032-4068,,,
603 549 633,ARO GREEN CLEANING SERVICES LL,,,5503 230TH ST SW,MT LK TERRACE,WA,98043-3942,,,
602 344 965,ALLEGIANCE CLEANING SERVICES,,,9210 MARKET PL # E-101,EVERETT,WA,98205,,,
605 076 852,A 1 CLEANING SERVICES LLC,,,19123 CROWN RIDGE BLVD,ARLINGTON,WA,98223-4004,,,
603 223 684,DAREMJOR CLEANING SERVICES,,,PO BOX 6833,BELLEVUE,WA,98008-0833,,,
603 380 368,DUBE CLEANING SERVICES CORP,,,37703 38TH AVE S,AUBURN,WA,98001-8749,,,
602 549 685,AT CLEANING SERVICES,,,8519 WEMBLEY DR,PASCO,WA,99301,,,
602 242 501,D & L CLEANING SERVICES,,,916 S 73RD ST,TACOMA,WA,98408,,,
605 309 526,BUTTERFLY CLEANING SERVICES LL,,,4302 W HOOD AVE APT B3,KENNEWICK,WA,99336-2669,,,
605 227 474,BUSY BEE CLEANING SERVICES LLC,,,14775 LUNZ RD,ANACORTES,WA,98221-8495,,,
601 917 698,CASCADE CLEANING SERVICES,,,PO BOX 992,SUMNER,WA,98390,,,
604 549 949,CAMILAS CLEANING SERVICES LLC,,,1807 WALNUT ST,EVERETT,WA,98201-1903,,,
602 339 116,BLUE WATER CLEANING SERVICES,,,41310 214TH AVE SE,ENUMCLAW,WA,98022,,,
604 848 217,BC CLEANING SERVICES,,,1818 W FRANCIS AVE # 266,SPOKANE,WA,99205-6834,,,
A47 743 000,ASSOCIATED CLEANING SERVICES,,,17618 LEITNER RD SW,ROCHESTER,WA,98579,,,
604 138 504,BEST CITY CLEANING SERVICES LL,,,27908 PACIFIC HWY S APT 538,FEDERAL WAY,WA,98003-3276,,,
A50 307 600,CLEANING SERVICES CO,,,P O BOX 15274,SEATTLE,WA,98115,,,
603 524 379,EPIC CLEANING SERVICES,,,1225 E WESTVIEW CT APT 415,SPOKANE,WA,99218-3823,,,
604 219 192,ELICZY CLEANING SERVICES LLC,,,14617 NE 70TH ST,VANCOUVER,WA,98682-5006,,,
604 471 899,GC MASTERS CLEANING SERVICES L,,,5909 204TH ST SW APT D,LYNNWOOD,WA,98036-7566,,,
603 189 901,EXCELLENT CLEANING SERVICES LL,,,10502 124TH AVE NE,KIRKLAND,WA,98033-4627,,,
604 790 840,EAST HILL CLEANING SERVICES LL,,,22920 112TH PL SE,KENT,WA,98031-2654,,,
604 593 465,ARIA CLEANING SERVICES LLC,,,13807 107TH AVE CT NW,GIG HARBOR,WA,98329-0000,,,
604 912 973,QUEEN JAS CLEANING SERVICES LL,,,4620 164TH ST SW UNIT 7,LYNNWOOD,WA,98087-6808,,,
604 459 826,E S CLEANING SERVICES LLC,,,35 N CHELAN AVE,WENATCHEE,WA,98801-2219,,,
,,,,,,,,,,
604 147 847,JN CLEANING SERVICES LLC,,,12605 E GIBSON RD UNIT 82,EVERETT,WA,98204-8601,,,
,,,,,,,,,,
,,,,,,,,,,
602 870 780,JOE'S CLEANING SERVICES,,,9912 75TH ST SW,LAKEWOOD,WA,98498-3336,,,
604 855 388,INTEGRA CLEANING SERVICES LLC,,,7638 40TH ST W APT 39,UNIVERSITY PL,WA,98466-3810,,,
604 886 654,GMY CLEANING SERVICES LLC,,,2407 JILLIAN CT,MOUNT VERNON,WA,98274-7602,,,
,,,,,,,,,,
604 869 988,HOUSE CALL CLEANING SERVICES L,,,255 NE FAIRGROUNDS RD APT 101,BREMERTON,WA,98311-8854,,,
602 669 234,GOODROWS CLEANING SERVICES,,,15517 FAIR OAKS DR S,SPANAWAY,WA,98387-9051,,,
602 684 031,KAYLAS CLEANING SERVICES,,,930 E 19TH AVE,KENNEWICK,WA,99337,,,
605 029 630,MAGGYS CLEANING SERVICES 1989,,,4120 MERIDIAN ST STE 260,BELLINGHAM,WA,98226-5540,,,
605 328 746,M&R CLEANING SERVICES,,,18312 36TH AVE W APT D1,LYNNWOOD,WA,98037-3845,,,
604 510 978,MAYRA CLEANING SERVICES LLC,,,103 W CASINO RD APT 8,EVERETT,WA,98204-1727,,,
605 319 750,MAGIC CLEANING SERVICES LLC,,,24500 RUSSELL RD TRLR 41,KENT,WA,98032-2261,,,
602 640 209,M D CLEANING SERVICES LLC,,,1429 AVE D #184,SNOHOMISH,WA,98290,,,
602 849 657,STELLAR CLEANING SERVICES,,,1242 MILBANKE DR SE,OLYMPIA,WA,98513-7722,,,
604 428 661,PRECISION CLEANING SERVICES,,,4191 WEST RD,BLAINE,WA,98230-9736,,,
604 597 918,MENDOZA CLEANING SERVICES,,,29924 2ND AVE SW,FEDERAL WAY,WA,98023-3508,,,
604 080 262,OREGON STATE CLEANING SERVICES,,,8981 N HAVEN AVE PORTLAND,PORTLAND,OR,97203-0000,,,
602 367 159,NORTHWEST CLEANING SERVICES,,,11018 DEEPWOOD DRIVE SW,LAKEWOOD,WA,98498,,,
604 350 028,NCW PRESTIGE CLEANING SERVICES,,,% CESAR SANTANA TREVINO PO BOX 1719,QUINCY,WA,98848-2154,,,
604 953 833,MJS FAMILY CLEANING SERVICES L,,,2400 N WILBUR RD APT 89,SPOKANE VALLEY,WA,99206-6651,,,
603 051 359,OIKOS CLEANING SERVICES,,,1067 PAIUTE TRAIL FI,FOX ISLAND,WA,98333-9627,,,
602 828 453,GREEN CLEANING SERVICES,,,227 BELLEVUE WAY NE STE 92,BELLEVUE,WA,98004-5721,,,
604 156 520,MAID 2 SHINE CLEANING SERVICES,,,308 SKYHAWK LN,SULTAN,WA,98294-7680,,,
604 968 473,MAYVAN CLEANING SERVICES LLC,,,1831 S 268TH ST UNIT 6,DES MOINES,WA,98198-9251,,,
604 020 338,MOP N STUFF CLEANING SERVICES,,,6905 NE 182ND ST UNIT 3,KENMORE,WA,98028,,,
604 890 302,OCEAN VIEW CLEANING SERVICES L,,,989 SW SILVERBERRY ST,OAK HARBOR,WA,98277-7243,,,
604 988 717,RODRIS CLEANING SERVICES LLC,,,9611 16TH AVENUE CT S,TACOMA,WA,98444-2811,,,
604 655 041,M&M CLEANING SERVICES,,,KARINA ROBLES 23908 67TH AVE E,GRAHAM,WA,98338-9479,,,
604 322 058,SPECIALTY CLEANING SERVICES,,,4186 CENTER PARK DRIVE,COLORADO SPRIN,CO,80916,,,
601 266 456,SPARKLE PLUS CLEANING SERVICES,,,C/O LANCE JOHNSON 19940 BALLINGER WAY NE #A2,SEATTLE,WA,98155,,,
604 712 127,RINACK CLEANING SERVICES LLC,,,12920 SE POWELL BLVD APT 10,PORTLAND,OR,97236-3341,,,
604 412 792,LCJ CLEANING SERVICES LLC,,,726 ORONDO AVE,WENATCHEE,WA,98801-2702,,,
605 330 115,COASTAL CLEANING SERVICES LLC,,,2731 CHERRY ST,HOQUIAM,WA,98550-2911,,,
604 574 401,PRISTINE ECO CLEANING SERVICES,,,3304 S 200TH ST UNITED STATES,SEA TAC,WA,98198-5736,,,
604 718 607,PEREIRA CLEANING SERVICES LLC,,,17651 1ST AVE S_UNIT 106,BURIEN,WA,98146-3155,,,
604 666 614,WELLSPRING CLEANING SERVICES,,,PO BOX 33064,TACOMA,WA,98433,,,
604 729 233,VILLAGOMEZ CLEANING SERVICES L,,,21428 INTERNATIONAL BLVD APT A205,SEA TAC,WA,98198-6008,,,
602 838 998,WILLIAM CLEANING SERVICES CORP,,,1601 MAPLE LANE # A7,KENT,WA,98030-7444,,,
604 678 163,LET IT SHINE CLEANING SERVICES,,,330 SW 43RD ST,RENTON,WA,98057-4900,,,
601 751 007,UNITED CLEANING SERVICES,,,19219 W VALLEY HWY # M-101 PO BOX 3422,KENT,WA,98032,,,
,,,,,,,,,,
604 785 592,STARR CLASSY CLEANING SERVICES,,,8816 QUINAULT LOOP NE,OLYMPIA,WA,98516-5913,,,
604 023 582,T S CLEANING SERVICES LLC,,,270 LAVERNE DR,KALAMA,WA,98625-9830,,,
602 563 016,SUPREME CLEANING SERVICES,,,521 W WHITMAN DR,COLLEGE PLACE,WA,99324-1034,,,
601 872 037,BOWEN CLEANING SERVICES INC,,,PO BOX 25358,FEDERAL WAY,WA,98023,,,
604 710 133,BLUE RED CLEANING SERVICES,,,1034 24TH ST APT 3,BELLINGHAM,WA,98225-8643,,,
603 242 291,BETTY CLEANING SERVICES LLC,,,2629 S 150TH ST,SEA TAC,WA,98188-2019,,,
601 592 278,"CLASSIC CLEANING SERVICES, LTD",,,3827 SOUTH L ST,TACOMA,WA,98408,,,
604 032 722,COLUMBIA CLEANING SERVICES COR,,,2302 NE 53RD ST,VANCOUVER,WA,98663-1964,,,
604 636 913,CMC CLEANING SERVICES,,,1436 S 308TH LN,FEDERAL WAY,WA,98003-4787,,,
603 566 026,CLOCK TOWER CLEANING SERVICES,,,13310 W 2ND AVE,AIRWAY HEIGHTS,WA,99001,,,
605 100 980,ALPINE CLEANING SERVICES LLC,,,1713 E MEAD LN,SPOKANE,WA,99218-6100,,,
604 381 255,ALL CLEANING SERVICES INC,,,8410 63RD ST W,UNIVERSITY PL,WA,98467-4028,,,
604 957 906,ALIS CLEANING SERVICES LLC,,,12652 OCCIDENTAL AVE S,SEATTLE,WA,98168-2604,,,
603 230 380,AMERICAS CLEANING SERVICES INC,,,12819 SE 38TH ST STE 105,BELLEVUE,WA,98006-1326,,,
604 828 207,AYALA CLEANING SERVICES LLC,,,1116 SW 139TH ST APT 165,BURIEN,WA,98166-1118,,,
604 936 034,ARIS CLEANING SERVICES LLC,,,321 N 27TH AVE,YAKIMA,WA,98902-2322,,,
,,,,,,,,,,
604 763 736,FAMOUS CLEANING SERVICES LLC,,,6814 NE HAZEL DELL AVE,VANCOUVER,WA,98665-8316,,,
602 371 006,PRISTINE CLEANING SERVICES LLC,,,1806 S GUM ST,KENNEWICK,WA,99337,,,
605 307 126,PRO EXPRESS CLEANING SERVICES,,,12605 E GIBSON RD UNIT 12,EVERETT,WA,98204-5698,,,
603 616 327,PROCLEAN CLEANING SERVICES INC,,,16212 BOTHELL EVERETT HWY,MILL CREEK,WA,98012-1603,,,
604 624 716,PRESTIGE CLEANING SERVICES LLC,,,3508 NE 109TH AVE APT W4,VANCOUVER,WA,98682-7295,,,
,,,,,,,,,,
604 906 056,POLLYS CLEANING SERVICES LLC,,,1506 DOGWOOD ST SE,LACEY,WA,98503-2741,,,
603 491 078,POULSBO CLEANING SERVICES LLC,,,JORGE DOWNIE 19723 10TH AVE NE #200,POULSBO,WA,98730,,,
602 768 233,NORTHWEST CLEANING SERVICES LL,,,1201 PACIFIC AVE STE 600,TACOMA,WA,98402,,,
603 544 465,FRESH START CLEANING SERVICES,,,1409 CIMARRON AVE,RICHLAND,WA,99352-8504,,,
602 911 511,GP CLEANING SERVICES,,,ATTN: LILIANA PLAZAS-GOMEZ 17740 151ST AVE SE APT 4-G,RENTON,WA,98058-9080,,,
604 174 791,RENES CLEANING SERVICES LLC,,,9851 24TH AVE SW,SEATTLE,WA,98106-2631,,,
601 947 925,RELIABLE CLEANING SERVICES INC,,,11355 3RD AVE NE # 202-F,SEATTLE,WA,98125,,,
603 063 791,RELIABLE MAN CLEANING SERVICES,,,5153 W WERNER RD,BREMERTON,WA,98312-3326,,,
604 329 591,RELUCENT CLEANING SERVICES LLC,,,408 ANDREA CIRCLE,PARKER,CO,80138,,,
,,,,,,,,,,
603 552 918,ELEGANT CLEANING SERVICES LLC,,,9544 187TH ST E,PUYALLUP,WA,98375-6285,,,
604 908 878,DUMPSTER CLEANING SERVICES LLC,,,16211 N COUGAR LN,NEWMAN LAKE,WA,99025-5134,,,
603 589 009,DSL CLEANING SERVICES LLC,,,1419 E 62ND ST,TACOMA,WA,98404-3537,,,
604 020 579,DYNAMICS CLEANING SERVICES LLC,,,25216 110TH AVE. SE APT Z202,KENT,WA,98030,,,
,,,,,,,,,,
604 129 311,LANEYARD'S CLEANING SRVCS LLC,07/20/2017,07/20/2023,4012 148th St SE M47,Mill Creek,WA,98012,,,
604 560 870,ECHEWA CLEANING SERVICES LLC,,,824 16TH ST NW,PUYALLUP,WA,98371-3976,,,
604 790 884,DESTINIS CLEANING SERVICES LLC,,,2020 S JACKSON ST APT 601,SEATTLE,WA,98144-2770,,,
604 781 015,DELTA SUPER CLEANING SERVICES,,,5615 SHORT CT SE,OLYMPIA,WA,98513-0000,,,
,,,,,,,,,,
602 469 465,DIRT BUSTERS CLEANING SERVICES,,,4917 EVERGREEN WAY PMB 331,EVERETT,WA,98203-2828,,,
603 058 441,DOUBLE EDGE CLEANING SERVICES,,,111 234TH ST SW,BOTHELL,WA,98021-8621,,,
605 223 709,DDS SERRANO CLEANING SERVICES,,,9815 NE 75TH CIR,VANCOUVER,WA,98662-4643,,,
603 587 198,DM CLEANING SERVICES LLC,,,3709 E R ST,TACOMA,WA,98404-4726,,,
605 326 663,EFRAIN CLEANING SERVICES LLC,,,4731 148TH AVE NE APT BB208,BELLEVUE,WA,98007-7848,,,
,,,,,,,,,,
602 842 266,AMAZING CLEANING SERVICES INC,,,C/O SERVICIOS CONTABLES Y AGEN 3807 NE 4TH ST,RENTON,WA,98056,,,
604 318 073,COQUENA CLEANING SERVICES LLC,,,1709 NE 78TH ST UNIT 14,VANCOUVER,WA,98665-9654,,,
603 529 094,AARONS CLEANING SERVICES LLC,,,1017 E 70TH ST,TACOMA,WA,98404,,,
604 667 880,ADM CLEANING SERVICES,,,3213 83RD ST S TRLR 10,LAKEWOOD,WA,98499-8986,,,
,,,,,,,,,,
605 161 319,FG CLEANING SERVICES LLC,,,34017 1ST CIR S APT C,FEDERAL WAY,WA,98003,,,
604 310 137,EMILYS CLEANING SERVICES,,,20527 196TH AVENUE CT E,ORTING,WA,98360-9372,,,
604 850 155,EM CLEANING SERVICES,,,5324 84TH ST E STE G,TACOMA,WA,98446-5627,,,
604 928 868,ELLIES CLEANING SERVICES LLC,,,25303 38TH AVE E,SPANAWAY,WA,98387-9531,,,
,,,,,,,,,,
,,,,,,,,,,
604 350 873,DASHING DS CLEANING SERVICES,,,7347 RAINIER DR,EVERETT,WA,98203-5772,,,
,,,,,,,,,,
604 604 320,PLUS ONE CLEANING SERVICES,,,4500 NICHOLSON RD APT E32,VANCOUVER,WA,98661-5692,,,
605 316 966,GILDAS CLEANING SERVICES,,,12804 NE 120TH ST APT R9,KIRKLAND,WA,98034-8509,,,
605 130 866,GLEAM CLEANING SERVICES LLC,,,1001 COOPER POINT RD SW,OLYMPIA,WA,98502-1107,,,
604 119 644,GOLDEN CLEANING SERVICES LLC,,,12118 HIGHWAY 99 APT F202,EVERETT,WA,98204-0063,,,
604 747 367,KM CLEANING SERVICES LLC,,,PO BOX 3693,WENATCHEE,WA,98807-3693,,,
604 021 245,MAJESTIC CLEANING SERVICES LL,,,13413 188TH AVE E,BONNEY LAKE,WA,98391-9618,,,
604 969 171,LAVI CLEANING SERVICES LLC,,,609 N 8TH ST,LYNDEN,WA,98264-1330,,,
605 099 079,KWS CLEANING SERVICES LLC,,,14809 NW GOLD FINCH LN,SEABECK,WA,98380-9123,,,
604 835 241,GS CLEANING SERVICES LLC,,,PO BOX 16485,SEATTLE,WA,98116-0485,,,
,,,,,,,,,,
603 134 109,HYGIENIC-PRO CLEANING SERVICES,,,12217 131ST PL NE APT B36,KIRKLAND,WA,98034-8025,,,
604 658 331,GRIT CITY CLEANING SERVICES,,,4924 N HIGHLAND ST,RUSTON,WA,98407-3116,,,
603 476 070,GONZALO CLEANING SERVICES LLC,,,17816 44TH AVE W APT 4,LYNNWOOD,WA,98037-3619,,,
602 880 416,GR CLEANING SERVICES INC,,,1320 N 14TH PL,MOUNT VERNON,WA,98273-6202,,,
604 364 697,GREEN SKY CLEANING SERVICES,,,1202 204TH PL SE OFC,BOTHELL,WA,98012-7739,,,
603 534 671,NAHUNS CLEANING SERVICES LLC,,,3408 50TH AVENUE NE,TACOMA,WA,98422,,,
602 823 122,LLAMAS CLEANING SERVICES INC,,,3107 NE 62ND AVE APT 16,VANCOUVER,WA,98661-7278,,,
604 899 415,LOPEZ CLEANING SERVICES LLC,,,12420 MERIDIAN AVE S APT 3,EVERETT,WA,98208-5763,,,
603 207 007,LUSTER CLEANING SERVICES LLC,,,805 S 326TH ST,FEDERAL WAY,WA,98003-5935,,,
603 534 935,LIDETU CLEANING SERVICES LLC,,,6634 BROADWAY,EVERETT,WA,98203-4841,,,
,,,,,,,,,,
604 635 249,LEAF ORGANIC CLEANING SERVICES,,,7000 132ND PL SE APT 204,NEWCASTLE,WA,98059-3038,,,
604 309 721,LEON FAMILY CLEANING SERVICES,,,3231 S 162ND ST,SEA TAC,WA,98188-3028,,,
604 670 223,MINNEYS CLEANING SERVICES LLC,,,6504 KANSAS ST,VANCOUVER,WA,98661-7425,,,
602 346 485,MR CHARLES CLEANING SERVICES,,,3638 BEACH DR SW,SEATTLE,WA,98116,,,
604 866 528,MR JS CLEANING SERVICES,,,9623 63RD AVENUE CT E,PUYALLUP,WA,98373-1720,,,
603 280 861,MILINDER CLEANING SERVICES LLC,,,30014 21ST AVE S,FEDERAL WAY,WA,98003-4248,,,
604 032 300,LAVISH CLEANING SERVICES LLC,,,3629 W AGATE ST,PASCO,WA,99301-2601,,,
,,,,,,,,,,
603 560 831,MC CLEANING SERVICES LLC,,,PO BOX 7074,BONNEY LAKE,WA,98391,,,
,,,,,,,,,,
604 640 636,UNITED CLEANING SERVICES INC,,,PO BOX 1031,EATONVILLE,WA,98328-1031,,,
604 488 704,VALKYRIE CLEANING SERVICES LLC,,,13491 PEEKABOO AVE NW,POULSBO,WA,98370-7051,,,
604 536 512,VISTA CLEANING SERVICES INC,,,2614 CARLSON RD,VANCOUVER,WA,98661-6512,,,
604 070 716,UNIQUE CLEANING SERVICES LLC,,,16601 122ND AVE SE,RENTON,WA,98058-5305,,,
603 301 481,SUMMERS CLEANING SERVICES LLC,,,112 VOSS ST NE,ORTING,WA,98360-7465,,,
604 785 823,SYLVIAS CLEANING SERVICES,,,21411 SE 291ST ST,KENT,WA,98042-6843,,,
604 632 705,TIFFANIS CLEANING SERVICES LLC,,,2396 MILTON WAY #D2,MILTON,WA,98354-9351,,,
603 107 754,OCD CLEANING SERVICES LLC,,,106 SUMMIT LOOP,MCCLEARY,WA,98557-9548,,,
604 564 752,OS CLEANING SERVICES LLC,,,1401 MERRILL CREEK PARKWAY APT 7026,EVERETT,WA,98203,,,
602 657 611,PINNACLE CLEANING SERVICES INC,,,16805 31ST DR SE,BOTHELL,WA,98012-6003,,,
604 951 105,ROSAS CLEANING SERVICES LLC,,,824 N LAVENTURE RD,MOUNT VERNON,WA,98273-3027,,,
603 272 551,SUNRISE CLEANING SERVICES LLC,,,7018 TACOMA MALL BLVD STE 202,TACOMA,WA,98409,,,
603 188 228,RUTHS HOUSEKEEPING & JANITORI,,,603 RONALD AVENUE,CLE ELUM,WA,98922,,,
,,,,,,,,,,
603 278 276,SELECT CLEANING SERVICES LLC,,,PO BOX 1474,GRAHAM,WA,98338-1474,,,
604 294 303,NATURE CLEANING SERVICES INC,,,14900 INTERURBAN AVE S STE 271,TUKWILA,WA,98168-4654,,,
601 366 770,GAMA CLEANING SERVICES INC.,,,3116 104TH PL SE,EVERETT,WA,98208-0000,,,
604 612 434,NC CLEANING SERVICES LLC,,,43901 N RIVER RD,BENTON CITY,WA,99320-5647,,,
603 536 723,JULIES CLEANING SERVICES LLC,,,620 SW 149TH ST APT B,BURIEN,WA,98166-1970,,,
602 669 791,JAN PRO CLEANING SERVICES,,,11033 MERIDIAN DR SE,EVERETT,WA,98208,,,
603 581 021,JCP CLEANING SERVICES INC,,,13301 SE 79TH PL UNIT C108,NEWCASTLE,WA,98059-3271,,,
602 878 315,JMH CLEANING SERVICES LLC,,,27442 SE 216TH ST,MAPLE VALLEY,WA,98038-6637,,,
604 024 857,SPARKLE CLEANING SERVICES LLC,,,7531 18TH ST SE,LAKE STEVENS,WA,98258-3162,,,
601 990 807,SPECIALTY CLEANING SERVICES L,,,13520 SE 163RD ST,RENTON,WA,98058,,,
602 853 553,SEARS HOME CLEANING SERVICES,,,17010 E 4TH AVE,SPOKANE VALLEY,WA,99037-8972,,,
,,,,,,,,,,
603 531 908,NW ELITE CLEANING SERVICES,,,31811 PACIFIC HWY S STE B #287,FEDERAL WAY,WA,98003,,,
605 287 425,SHARK CLEANING SERVICES LLC,,,1625 S RAINIER ST,KENNEWICK,WA,99337-3444,,,
604 929 960,SKY CLEANING SERVICES LLC,,,1066 S 320TH ST APT J208,FEDERAL WAY,WA,98003-2031,,,
603 194 093,AM CLEANING SERVICE LLC,02/10/2016,02/10/2024,po box 8302,BONNEY LAKE,WA,98391,,,
604 322 334,CABBROS CLEANING SERVICE LLC,07/10/2019,07/10/2025,PO Box 563,CHEHALIS,WA,98532,,,
604 030 681,CABBROS CLEANING SERVICE,11/01/2018,11/01/2020,PO Box 563,CHEHALIS,WA,98532,,,
602 573 870,ALKS CLEANING SERVICE,01/13/2006,01/13/2018,308 SE 19th AVE,MILTON FREEWATER,OR,97862,,,
604 944 480,DANY'S CLEANING SERVICE LLC,02/09/2023,02/09/2025,18309 68TH AVE W,LYNNWOOD,WA,98037,,,
604 929 174,FNH CLEANING SERVICE LLC,10/12/2023,10/12/2025,5515 STEILACOOM BLVD SW,LAKEWOOD,WA,98499,,,
604 292 313,FRITZI'S CLEANING SERVICE,08/06/2019,08/06/2023,703 106TH PL SW,EVERETT,WA,98204,,,
602 988 617,DEL RIO CLEANING SERVICE,05/05/2015,05/05/2017,15612 NE 12TH ST,VANCOUVER,WA,98684,,,
603 407 037,DYNAMITE CLEANING SERVICE,05/13/2016,05/13/2020,10619 57TH DR NE,MARYSVILLE,WA,98270,,,
602 628 810,C G CLEANING SERVICE,08/17/2006,08/17/2020,701 N 23RD AVE,KELSO,WA,98626,,,
604 450 967,CLICK HOOD CLEANING SERVICE,08/31/2021,08/31/2025,713 170TH SW,LYNNWOOD,WA,98037,,,
602 817 327,ANGELAS CLEANING SERVICE,03/30/2012,03/30/2020,PO BOX 5219,PASCO,WA,99302,,,
604 389 284,CLASSY CLEANING SERVICE LLC,08/03/2020,08/03/2022,35916 22ND PL S APT 30B,FEDERAL WAY,WA,98003,,,
604 728 234,CLEAR AND CLEAN SERVICES,04/09/2021,04/09/2025,699 DRAPER RD,PORT ANGELES,WA,98362,,,
602 294 461,RICK'S CLEANING SERVICE INC,04/17/2019,04/26/2025,1122 S Robin Hood St,SPOKANE VALLEY,WA,99206,,,
603 316 767,SPOKANE CLEANING SERVICE,06/09/2016,06/09/2024,4130 Springdale-Hunters Rd,Springdale,WA,99173,,,
604 459 684,SHINING SUN CLEANING SERVICE,02/01/2022,02/01/2024,1926 W CASINO RD,EVERETT,WA,98204,,,
602 465 632,RC CLEANING SERVICE'S,12/19/2019,12/19/2021,21244 29TH AVE S,SEATAC,WA,98198,,,
604 730 875,MAFLA'S CLEANING SERVICE LLC,06/23/2021,06/23/2025,18205 109th ave SE,RENTON,WA,98055,,,
603 475 165,MAGANA'S CLEANING SERVICE,10/14/2015,10/14/2017,4915 115TH ST CT SW APT 3,LAKEWOOD,WA,98499,,,
604 588 962,ORDONEZ HOUSE CLEANING SERVICE,09/07/2021,09/07/2023,3602 S 180TH ST #A48,SEATAC,WA,98188,,,
602 707 385,VERDE CLEANING SERVICE,09/15/2009,06/17/2017,2210 SW 328TH ST,FEDERAL WAY,WA,98023,,,
602 463 072,ROZA'S CLEANING SERVICE,06/07/2018,06/07/2022,3427 SW 343 ST,FEDERAL WAY,WA,98023,,,
604 230 731,GARCIA'S CLEANING SERVICE LLC,02/27/2018,02/27/2020,1921 RD 36,PASCO,WA,99301,,,
603 202 627,SUPER J'S CLEANING SERVICE,07/05/2012,07/05/2018,PO BOX 1316,SPANAWAY,WA,98387,,,
603 458 424,SIRJESSE'S CLEANING SERVICE,08/31/2018,08/31/2020,3845 37TH AVE SO.,SEATTLE,WA,98118,,,
604 087 190,STEVENS CLEANING SERVICE,02/10/2017,03/23/2023,3509 R St,VANCOUVER,WA,98663,,,
604 226 789,LUMINOUS CLEANING SERVICE LLC,04/24/2018,04/24/2020,32014 SE LAKE WALKER RD,ENUMCLAW,WA,98022,,,
605 031 053,YOUTHFUL CLEANING SERVICES,,,5501 S MULLEN ST STE C2,TACOMA,WA,98409,,,
603 413 931,SPARKLING CLEANING SRVC LLC,01/15/2020,01/15/2024,1127 NEPEAN DR SE,OLYMPIA,WA,98513,,,
604 776 711,EXCEPTIONAL CLEANING SERVICES,,,4591 NW 132ND AVE,PORTLAND,OR,97229-4555,,,
604 743 263,VIOLETTHAS CLEANING SERVICES,,,13519 202ND ST E,GRAHAM,WA,98338-8107,,,
,,,,,,,,,,
A43 475 500,YOLANDA CLEANING SERVICES,,,10207 BECKER DR SE,TACOMA,WA,98499,,,
602 862 258,A2Z CLEANING SERVICES,,,2127 158TH ST SE,MILL CREEK,WA,98012-5823,,,
602 474 389,AAA CLEANING SERVICES,,,2917 SAWALL AVE UNIT B,CENTRALIA,WA,98531,,,
603 003 814,ACE CLEANING SERVICES,,,5040 38TH ST NE,TACOMA,WA,98422-3048,,,
,,,,,,,,,,
604 671 407,CLASSY CLEANING SERVICES,,,2470 SUNSHINE RD,ROSEBURG,OR,97470,,,
,,,,,,,,,,
,,,,,,,,,,
603 468 633,QUALITY CLEANING SERVICES,,,14624 46TH AVE S,TUKWILA,WA,98168-4440,,,
604 152 704,RUTHS CLEANING SERVICES,,,603 RONALD AVE,CLE ELUM,WA,98922-1037,,,
,,,,,,,,,,
603 247 822,SUPER CLEANING SERVICES,,,2411 192ND ST SE,BOTHELL,WA,98012-6990,,,
604 966 726,PERFORMANCE CLEANING SERVICES,,,7107 196TH ST SW APT 1,LYNNWOOD,WA,98036-5094,,,
601 362 170,PROFESSIONAL CLEANING SERVICES,,,8714 27TH AVE NE,MARYSVILLE,WA,98270,,,
603 106 572,PCS CLEANING SERVICES,,,9312 S TACOMA WAY STE 170,LAKEWOOD,WA,98499-4466,,,
,,,,,,,,,,
,,,,,,,,,,
603 400 402,SERENDIPITY CLEANING SERVICES,,,3524 S 281ST ST,AUBURN,WA,98001-1056,,,
604 470 691,IT S MAGIC CLEANING SERVICES,,,42633 MAY CREEK RD,GOLD BAR,WA,98251-9537,,,
602 930 605,OVER THE TOP CLEANING SERVICES,,,PO BOX 383,GRANITE FALLS,WA,98252-0383,,,
604 656 348,HUMMINGBIRD CLEANING SERVICES,,,4204 HONEYSUCKLE PL,BELLINGHAM,WA,98229-2802,,,
602 781 401,HR CLEANING SERVICES,,,PO BOX 11115,OLYMPIA,WA,98508,,,
603 489 219,LUANNI CLEANING SERVICES,,,10612 17TH STREET AVE S APT B,TACOMA,WA,98444,,,
,,,,,,,,,,
604 867 280,JVG CLEANING SERVICES,,,PO BOX 1027,TONASKET,WA,98855-1027,,,
604 451 220,ITZEL CLEANING SERVICES,,,22223 NE 82ND PL,REDMOND,WA,98053-5906,,,
,,,,,,,,,,
,,,,,,,,,,
602 470 017,EMILYS CLEANING SERVICES,,,8105 48TH AVE SW,LAKEWOOD,WA,98499,,,
604 786 003,EMPIRE CLEANING SERVICES,,,8708 N CHERRY LN,SPOKANE,WA,99208-6075,,,
,,,,,,,,,,
603 242 943,DIRT CLEANING SERVICES,,,1220 W EUCILD BLDG,SPOKANE,WA,99205-0000,,,
604 910 518,FERMANS CLEANING SERVICES,,,120 PALISADES PL,PACIFIC,WA,98047-5003,,,
,,,,,,,,,,
602 172 775,BRIGHTWAY CLEANING SERVICES,,,732 93RD ST SW,EVERETT,WA,98204-2632,,,
604 618 429,BRUCES CLEANING SERVICES,,,TRINA CROW PO BOX 552,HOODSPORT,WA,98548-0552,,,
602 245 950,AGUILAR CLEANING SERVICES,,,29401 MILITARY RD S UNIT 29,FEDERAL WAY,WA,98003-7979,,,
604 862 804,AGUILARS CLEANING SERVICES,,,6923 BERKSHIRE DR,EVERETT,WA,98203-5151,,,
A40 406 000,APARTMENT CLEANING SERVICES,,,PO BOX 3757,KENT,WA,98031,,,
604 312 867,CARLSONS CLEANING SERVICES,,,PO BOX 162,VADER,WA,98593,,,
,,,,,,,,,,
603 114 226,DOWN & DIRTY CLEANING SERVICES,,,4701 NE ST JAMES RD,VANCOUVER,WA,98661,,,
602 247 821,BRYANT CLEANING SERVICES,,,6233 118TH PL,SEATTLE,WA,98178,,,
603 327 328,BUZZS CLEANING SERVICES,,,11515 SE 302ND CT,AUBURN,WA,98092-2057,,,
604 772 393,C & F CLEANING SERVICES,,,5373 MINARD RD W,BREMERTON,WA,98312-9728,,,
603 331 772,LLY OFFICE CLEANING SERVICES L,,,5907 202ND ST SW UNIT 3,LYNNWOOD,WA,98036-6299,,,
,,,,,,,,,,
,,,,,,,,,,
,,,,,,,,,,
,,,,,,,,,,
601 583 507,COZY HOME CLEANING SERVICES,,,3000 BILL MCDONALD HWY #16,BELLINGHAM,WA,98225,,,
,,,,,,,,,,
603 003 621,WEST COAST CLEANING SERVICES,,,11902 10TH DR SE A,EVERETT,WA,98208-2504,,,
,,,,,,,,,,
,,,,,,,,,,
604 444 239,ADRIS CLEANING SERVICES LLC,,,16976 SAWYER ST SE,MONROE,WA,98272-2614,,,
,,,,,,,,,,
604 186 565,TOP NOTCH CLEANING SERVICES,,,12128 N DIVISON ST # 431,SPOKANE,WA,99224,,,
,,,,,,,,,,
,,,,,,,,,,
,,,,,,,,,,
,,,,,,,,,,
602 174 188,DUSTY CACTUS CLEANING SERVICES,,,28247 149TH AVE SE,KENT,WA,98042,,,
600 627 266,MAGIC CARPET CLEANING SERVICES,,,19707 44TH W #115,LYNNWOOD,WA,98036,,,
,,,,,,,,,,
,,,,,,,,,,
,,,,,,,,,,
,,,,,,,,,,
,,,,,,,,,,
,,,,,,,,,,
,,,,,,,,,,
,,,,,,,,,,
,,,,,,,,,,
602 641 083,A+ KITSAP CLEANING SERVICES,,,120 BLOOMINGTON AVE,BREMERTON,WA,98312-4035,,,
,,,,,,,,,,
604 572 325,DIZZY BEEZ CLEANING SERVICES,,,4500 9TH AVE NE STE 300,SEATTLE,WA,98105,,,
,,,,,,,,,,
603 381 218,A SPECIAL CLEANING SERVICES,,,2240 PORTER LOOP,YAKIMA,WA,98901,,,
,,,,,,,,,,
,,,,,,,,,,
,,,,,,,,,,
602 529 243,ROCK SOLID CLEANING SERVICES,,,2217 227TH PL TRLR 21,OCEAN PARK,WA,98640-3535,,,
601 946 938,KUR VUE CLEANING SERVICES,,,543 NE 88TH ST,SEATTLE,WA,98115,,,
601 643 147,MORNING STAR CLEANING SERVICES,,,720 TIPSOO LOOP SOUTH,RAINIER,WA,98576,,,
,,,,,,,,,,
,,,,,,,,,,
,,,,,,,,,,
,,,,,,,,,,
602 516 050,AR-IA CLEANING SERVICES,,,13807 107TH AVE CT NW,GIG HARBOR,WA,98329,,,
602 961 871,GO GREEN CLEANING SERVICES,,,2108 EAST 3RD AVENUE,PORT ANGELES,WA,98362,,,
,,,,,,,,,,
,,,,,,,,,,
,,,,,,,,,,
,,,,,,,,,,
,,,,,,,,,,
604 102 848,A+ WINDOW CLEANING SERVICES,,,4409 W CHESTNUT AVE,YAKIMA,WA,98908,,,
601 538 523,WHITE GLOVE CLEANING SERVICES,,,PO BOX 11010,YAKIMA,WA,98903-9998,,,
604 213 824,MOVE OUT CLEANING SERVICES,,,23316 NE REDMOND-FALL CITY RD,REDMOND,WA,98053-8376,,,
601 013 421,TRI CLEANING SERVICES INC,,,7505 91ST AVE SW,TACOMA,WA,98498,,,
,,,,,,,,,,
,,,,,,,,,,
,,,,,,,,,,
,,,,,,,,,,
,,,,,,,,,,
,,,,,,,,,,
,,,,,,,,,,
,,,,,,,,,,
,,,,,,,,,,
,,,,,,,,,,
,,,,,,,,,,
604 173 532,LA PONDEROSA CLEANING SERVICES,,,12111 NE 150TH ST,KIRKLAND,WA,98034,,,
603 536 032,EL ASEO CLEANING SERVICES LLC,,,29906 43RD AVE S,AUBURN,WA,98001-2906,,,
604 722 236,A TEAM FLOOR CLEANING SERVICES,,,7609 NE VANCOUVER MALL DR APT,VANCOUVER,WA,98662-7907,,,
603 529 324,MR B CLEANING SERVICES LLC,,,1915 NE 125TH ST,SEATTLE,WA,98125-4152,,,
603 525 881,UP-KEEP CLEANING SERVICES LLC,,,6307 78TH PL NE,MARYSVILLE,WA,98270,,,
603 457 303,M & B CLEANING SERVICES LLC,,,1217 LOMBARD AVE,EVERETT,WA,98201,,,
602 130 857,B&W CLEANING SERVICES INC.,,,3727 74TH AVE CT NW,GIG HARBOR,WA,98335,,,
604 208 369,STAR CLEANING SERVICES LLC,,,PO BOX 16245,SEATTLE,WA,98116-0245,,,
603 432 422,A&F CLEANING SERVICES LLC,,,20226 91ST PL S,KENT,WA,98031-1487,,,
603 475 784,CANAS CLEANING SERVICES LLC,,,PO BOX 13118,EVERETT,WA,98206-3118,,,
604 373 704,A&B CLEANLY CLEANING SERVICES,,,PO BOX 1196,KITTITAS,WA,98934,,,
604 961 826,E&E CLEANING SERVICES LLC,,,5308 YAKIMA LN SE,LACEY,WA,98503-5030,,,
604 890 566,J & C CLEANING SERVICES LLC,,,4548 N 1ST WAY,RIDGEFIELD,WA,98642-8492,,,
603 533 832,S&R HOME CLEANING SERVICES LLC,,,719 POLK ST S,TACOMA,WA,98444-5651,,,
604 697 196,DIAMOND CLEANING SERVICES LLC,,,1705 STELLA AVE UNIT D134,WENATCHEE,WA,98801-1392,,,
604 212 517,R & J CLEANING SERVICES LLC,,,1401 21ST ST SE,AUBURN,WA,98002-7871,,,
604 877 821,ALL WEEK CLEANING SERVICES LLC,,,25417 98TH AVE S APT I205,KENT,WA,98030-6108,,,
602 613 473,DUN RITE CLEANING SERVICES LLC,,,2432 N BAKERVIEW PK DR,FERNDALE,WA,98248,,,
603 479 509,FAMILY KEY CLEANING SERVICES L,,,319 N WEHE AVE,PASCO,WA,99301-4253,,,
601 355 208,REGAL CLEANING SERVICES INC,,,9703 NW 15TH AVE,VANCOUVER,WA,98665,,,
603 174 271,IN & OUT CLEANING SERVICES,,,12507 201ST AVE CT E,BONNEY LAKE,WA,98391-5418,,,
603 601 474,CRISTAL CLEANING SERVICES LLC,,,22720 3RD AVE SE #A,BOTHELL,WA,98021,,,
603 534 014,DEZA CLEANING SERVICES LLC,,,1517 21ST AVE S,SEATTLE,WA,98144,,,
,,,,,,,,,,
604 104 909,SILVAS CLEANING SERVICES LLC,,,11400 NE 132ND ST APT Q101,KIRKLAND,WA,98034-4745,,,
603 604 127,SJL CLEANING SERVICES & TRANSP,,,24109 62ND WAY S APT 18-304,KENT,WA,98032-4632,,,
603 081 737,UJ BROTHERS CLEANING SERVICES,,,1020 W BLACKBURN RD,MOUNT VERNON,WA,98273-9586,,,
603 496 741,RUFIS CLEANING SERVICES LLC,,,11202 2ND LN SW APT G302,SEATTLE,WA,98146-2392,,,
,,,,,,,,,,
604 218 744,NED STEVENS CLEANING SERVICES,,,11 DANIEL RD RICH RESTAINO,FAIRFIELD,NJ,07004-2506,,,
604 163 464,NISSI CLEANING SERVICES LLC,,,1500 HARRINGTON AVE SE,RENTON,WA,98058,,,
604 475 303,S A CLEANING SERVICES,,,13519 202ND ST E,GRAHAM,WA,98338,,,
603 153 647,TWINKLE CLEANING SERVICES LLC,,,2129 103RD ST SW UNIT A,EVERETT,WA,98204,,,
602 989 157,SUNSHINE CLEANING SERVICES,,,9011 14TH AVE S,SEATTLE,WA,98108-4815,,,
603 556 279,HOLISTIC CLEANING SERVICES LLC,,,PO BOX 5518,KENT,WA,98064-5518,,,
602 095 510,MONARCH CLEANING SERVICES INC,,,14419 GREENWOOD AVE N STE A PMB # 356,SEATTLE,WA,98133-6865,,,
604 105 000,TUTU CLEANING SERVICES LLC,,,12536 33RD AVE NE APT 320,SEATTLE,WA,98125-4685,,,
603 484 215,ALL PURPOSE CLEANING SERVICES,,,3416 53RD AVE NE,TACOMA,WA,98422-3112,,,
603 575 510,CLAVERO CLEANING SERVICES LLC,,,9748 NE 134TH ST,KIRKLAND,WA,98034-1923,,,
603 431 288,GET SPIFFY CLEANING SERVICES,,,"306 NE 104TH AVE, B13",VANCOUVER,WA,98664,,,
604 340 333,BEST CLEANING SERVICES,,,26705 19TH AVE S,DES MOINES,WA,98198-9257,,,
602 663 874,CITYWIDE TRANSPORTATION LLC,,,700 NW GILMAN BLVD #374,ISSAQUAH,WA,98027-5395,,,
603 054 795,EMIES HOUSE CLEANING SERVICES,,,ATTN MARK FIGUEROA 1321 S PUGET DR APT E35,RENTON,WA,98055-4332,,,
603 216 638,HOME CLEANING SERVICES MADE EA,,,1126 16TH AVE E,SEATTLE,WA,98112,,,
601 337 324,PFEIFFERS CLEANING SERVICES IN,,,12426 TATOOSH RD E,PUYALLUP,WA,98374-2987,,,
601 778 380,DEES CLEANING SERVICES,,,11703 SE 160TH ST,RENTON,WA,98058,,,
603 458 458,RAINBOW CLEANING SERVICES,,,2405 S STAR LAKE RD STE 50-301,FEDERAL WAY,WA,98003,,,
602 932 238,GAMADA KHALIL ALIYE,,,11814 4TH AVENUE S,SEATTLE,WA,98168,,,
603 574 052,BERTHAS CLEANING SERVICES,,,10404 40TH AVE SW,SEATTLE,WA,98146,,,
602 808 786,DIVINITY CLEANING SERVICES,,,317 NE WASHINGTON AVE,CHEHALIS,WA,98532-2651,,,
603 535 578,TETIANA CLEANING SERVICES,,,15323 SE 272ND SY UNIT 72,KENT,WA,98042-4226,,,
603 570 764,EPITACIO CLEANING SERVICES,,,25012 97TH PL S APT E107,KENT,WA,98030-6902,,,
603 375 578,ALBAS CLEANING SERVICES,,,9332 S STEELE ST # U437,TACOMA,WA,98444-1875,,,
A34 927 000,DISCOUNT CLEANING SERVICES,,,BAUER PETER H 400 108TH NE SUITE 20,BELLEVUE,WA,98004,,,
603 437 697,DAISY'S CLEANING SERVICES,,,% DAISY CRISTOBAL-NUNEZ 3437 REDWOOD AVE APT 11,BELLINGHAM,WA,98225,,,
,,,,,,,,,,
,,,,,,,,,,
603 591 198,ELITE CLEANING SERVICES,,,61111 COMISKEY DR,PASCO,WA,99301,,,
600 317 063,NORTHWEST CLEANING SERVICES,,,8621 TACOMA AVE S,TACOMA,WA,98444-6344,,,
602 512 759,ADVANCED CLEANING SERVICES,,,C/O ROWLEY WADE A 6503 174TH PL SE,SNOHOMISH,WA,98296,,,
602 513 176,QUEEN B CLEANING SERVICES,,,11404 89TH AVENUE CT E,PUYALLUP,WA,98373-3808,,,
602 835 934,NORTHWEST CLEANING SERVICES,,,510 W FIRST ST,NOOKSACK,WA,98276,,,
,,,,,,,,,,
,,,,,,,,,,
,,,,,,,,,,
602 816 307,VIKOS CLEANING SERVICES,,,15201 NE 16TH PL APT 3,BELLEVUE,WA,98007-8413,,,
601 673 626,MAID TO PERFECTION,,,7518 N MARKET #5,SPOKANE,WA,99217,,,
603 016 404,JHNC CLEANING SERVICES,,,8428 N MOUNTAIN VIEW LN,SPOKANE,WA,99208,,,
,,,,,,,,,,
602 696 756,MJP CLEANING SERVICES,,,26805 171ST PL SE #G102,COVINGTON,WA,98042,,,
602 430 476,SUNRISE CLEANING SERVICES,,,15916 46TH AVENUE E,TACOMA,WA,98446,,,
600 375 565,ABSOLUTE CLEANING SERVICES,,,9245 A RAINIER AVE SOUTH,SEATTLE,WA,98118,,,
602 300 454,MALVINAS CLEANING SERVICES,,,3078 118TH AVE SE STE Q-203,BELLEVUE,WA,98005,,,
603 434 031,MULANS CLEANING SERVICES,,,9949 RICHARDSON RD NW,BREMERTON,WA,98311,,,
,,,,,,,,,,
601 528 735,ACTION CLEANING SERVICES,,,3316 TARABOCHIA ST,GIG HARBOR,WA,98335-1147,,,
601 959 677,SPARKLE CLEANING SERVICES,,,4303 NE 50TH AVE,VANCOUVER,WA,98661,,,
604 488 296,STAFFSHINE CLEANING SERVICES,,,PO BOX 204,LAKE STEVENS,WA,98258,,,
603 422 419,GENESIS CLEANING SERVICES,,,12715 BRIDGEPORT WAY SW APT 12,LAKEWOOD,WA,98499,,,
603 392 648,SARISAC CLEANING SERVICES,,,2011 BRANDT RD APT 6,VANCOUVER,WA,98661-5756,,,
600 216 466,NORTHWEST WINDOWS,,,1034 DEARBORN AVE,SHELTON,WA,98584,,,
,,,,,,,,,,
601 032 076,ELITE CLEANING SERVICES,,,4171 WHEATON WAY A-8 STE 4,BREMERTON,WA,98310,,,
601 238 274,RANDIES CLEANING SERVICES,,,1642 169TH AVE NE,BELLEVUE,WA,98008-2913,,,
,,,,,,,,,,
601 113 524,TOTAL CLEANING SERVICES,,,5702 95TH PLACE S W,MUKILTEO,WA,98275,,,
602 612 534,SABREENAS CLEANING SERVICES,,,PO BOX 3444,LACEY,WA,98509-3444,,,
,,,,,,,,,,
601 870 878,RACHELS CLEANING SERVICES,,,4415 240TH ST SW,MT LK TERRACE,WA,98043-5727,,,
,,,,,,,,,,
603 221 460,ATHENAS CLEANING SERVICES,,,PO BOX 1116,CLE ELUM,WA,98922-2116,,,
602 568 888,LKD CLEANING SERVICES,,,3829 GOLDFINCH DR SE,LACEY,WA,98503,,,
,,,,,,,,,,
602 357 943,LIGHTNER CLEANING SERVICES,,,PO BOX 22022,SEATTLE,WA,98122-0022,,,
601 460 490,CONVENIENCE CLEANING SERVICES,,,PO BOX 141311,SPOKANE,WA,99216,,,
602 496 057,INTEGRITY + CLEANING SERVICES,,,1217 119TH ST S,TACOMA,WA,98444-2421,,,
,,,,,,,,,,
604 114 442,MIA CLEANING SERVICES,,,6702 ROOSEVELT WAY NE APT B205,SEATTLE,WA,98115-6650,,,
,,,,,,,,,,
602 741 959,AUTHENTIC CLEANING SERVICES,,,2137 CONGER AVE NW APT C,OLYMPIA,WA,98502-4582,,,
603 160 565,SPOTLESS CLEANING SERVICES,,,1777 S BURLINGTON BLVD # 132,BURLINGTON,WA,98233,,,
601 958 043,STERLING CLEANING SERVICES,,,1610 S EVERGREEN RD,VERADALE,WA,99037,,,
602 140 547,PROFESSIONAL CLEANING SERVICES,,,1429 EASTHILLS TERRACE,EAST WENATCHEE,WA,98802,,,
603 330 081,KSB CLEANING SERVICES,,,3115 E 29TH AVE APT 22,SPOKANE,WA,99223,,,
601 844 731,TEAMWORK CLEANING SERVICES,,,31 NE VIEW RIDGE DR W,BELFAIR,WA,98528-9481,,,
,,,,,,,,,,
602 168 326,BEST CLEANING SERVICES,,,11118 23RD DR SE,EVERETT,WA,98208,,,
602 400 093,KIZZIAR CLEANING SERVICES,,,2823 123RD ST SW,EVERETT,WA,98204,,,
604 034 042,SHALOM CLEANING SERVICES,,,621 N WEHE AVE,PASCO,WA,99301-5968,,,
602 146 228,TOP CLEANING SERVICES,,,13202 130TH PL NE,KIRKLAND,WA,98034,,,
601 526 415,WHITE CLEANING SERVICES,,,17837 1ST AVE S # 173,NORMANDY PARK,WA,98148,,,
601 401 406,ADVANCED CLEANING SERVICES,,,5324 151ST ST SW,EDMONDS,WA,98026,,,
602 398 129,IMPECCABLE CLEANING SERVICES,,,314 AVE J TRLR 12,SNOHOMISH,WA,98290,,,
,,,,,,,,,,
602 814 561,COLUMBIA CLEANING SERVICES,,,2302 NE 53RD ST,VANCOUVER,WA,98663-1964,,,
,,,,,,,,,,
600 599 801,ALLPRO CLEANING SERVICES,,,"4204 RUSSELL ROAD, SUITE C",MUKILTEO,WA,98275,,,
603 584 655,CASTRO CLEANING SERVICES LLC,,,18011 MILITARY RD S,SEATTLE,WA,98188,,,
603 543 921,ALL SEASONS CLEANING SERVICES,,,1087 LEWIS RIVER RD # 112,WOODLAND,WA,98674-9689,,,
603 059 404,TOP CLEANING SERVICES LLC,,,2716 NW 99TH ST,VANCOUVER,WA,98665,,,
604 340 959,NARROWS CLEANING SERVICES LLC,,,5823 WOLLOCHET DR NW,GIG HARBOR,WA,98335-7325,,,
601 376 993,EVER READY CLEANING SERVICES,,,33718 38TH PL SW,FEDERAL WAY,WA,98023,,,
601 662 007,DIAMOND CLEANING SERVICES INC,,,2749 4TH AVE S,SEATTLE,WA,98134,,,
602 322 805,M J CLEANING SERVICES,,,1415 S GARFIELD ST,TACOMA,WA,98444,,,
603 079 903,TRI CITIES CLEANING SERVICES,,,2212 WEST PEARL ST,PASCO,WA,99301,,,
600 470 176,G & T CLEANING SERVICES,,,1620 N WALNUT #F-115,TUCSON,AZ,85712,,,
601 998 899,JAMES CLEANING SERVICES,,,629 NW RICHMOND BEACH RD,SHORELINE,WA,98177,,,
603 436 532,CODA CLEANING SERVICES,,,3516 185TH ST CT E,TACOMA,WA,98446,,,
603 042 303,KUR VUE CLEANING SERVICES,,,543 NE 88TH ST,SEATTLE,WA,98115-2936,,,
602 711 430,HARVARD CLEANING SERVICES,,,8129 BEVERLY BLVD,EVERETT,WA,98203,,,
603 609 569,PRO LUXURY CLEANING SERVICES,,,% BARRETT BUSINESSS SERVICES 8100 NE PARKWAY DR SUITE 200,VANCOUVER,WA,98662,,,
603 162 226,YM CLEANING SERVICES,,,2059 127TH AVE SE,BELLEVUE,WA,98005,,,
602 584 259,CLEANING SERVICES GROUP INC,,,230 NORTH STREET,DANVERS,MA,01923,,,
603 383 615,ALINES CLEANING SERVICES LLC,,,2785 CHRISTIANSON AVE,ENUMCLAW,WA,98022-5045,,,
603 314 469,EAGLE CLEANING SERVICES LLC,,,120 SE EVERETT MALL WAY APT 712,EVERETT,WA,98208-3223,,,
603 534 649,ROMAN CLEANING SERVICES,,,3302 SW 333RD ST,FEDERAL WAY,WA,98023-2756,,,
602 988 597,OJT INTERIOR CLEANING SERVICES,,,17208 13TH AVE E,SPANAWAY,WA,98387-7719,,,
602 990 810,DCS FACILITY SERVICES INC,,,ATTN: JIM HENNING 133 RAYLOW AVE.,MANTECA,CA,95336,,,
605 159 602,LADY CLEANING SERVICES LLC,,,7502 NE 153RD PL,KENMORE,WA,98028-6400,,,
602 426 675,ROBERTS CLEANING SERVICES LLC,,,221 STATE AVE STE C 117,MARYSVILLE,WA,98270,,,
601 317 796,"CAPITOL CLEANING SERVICES, INC",,,2013 NW 62ND ST,SEATTLE,WA,98107,,,
601 055 765,SUPERIOR BUILDING SERVICES INC,,,15050 BOTHELL WAY NE,SEATTLE,WA,98155,,,
603 336 213,VIDA CLEANING SERVICE LLC,,,28704 235TH AVE SE,MAPLE VALLEY,WA,98038-3315,,,
602 681 752,CENTURY CLEANING SERVICES INC,,,11414 N CREST CT,SPOKANE,WA,99218-2667,,,
603 380 317,AJ CLEANING SERVICES,,,4512 NE 135TH AVE,VANCOUVER,WA,98682-6544,,,
603 197 035,PACIFIC CLEANING SERVICES & SU,,,PO BOX 392,EDMONDS,WA,98020,,,
604 401 391,DASH CLEANING SERVICES LLC,,,7429 119TH CT SE,NEWCASTLE,WA,98056-1788,,,
604 452 901,4 PETES SAKE CLEANING SERVICE,,,PO BOX 996,AIRWAY HEIGHTS,WA,99001-1791,,,
603 001 670,ALC CLEANING SERVICES LLC,,,PO BOX 1747,KENT,WA,98035,,,
604 101 281,AJR CLEANING SERVICES LLC,,,2409 BORST AVE,CENTRALIA,WA,98531-1411,,,
603 531 332,ARISON CLEANING SERVICES LLC,,,12102 4TH AVE W APT 17 101,EVERETT,WA,98204,,,
,,,,,,,,,,
603 504 505,ACE CLEANING SERVICES,,,3142 PRIMROSE ST,WEST RICHLAND,WA,99353-5722,,,
601 969 836,DIANAS CLEANING SERVICES LLC,,,10618 SE 240TH ST SUITE 204,KENT,WA,98031,,,
600 231 081,CLEANING SERVICES,,,P.O. BOX 2247,ALAMEDA,CA,94501,,,
603 531 459,ABEBAS CLEANING SERVICES LLC,,,14927 17TH PL W,LYNNWOOD,WA,98087-8795,,,
603 316 748,A+ CLEANING SERVICES LLC,,,726 SW 13TH AVE,OAK HARBOR,WA,98277-4509,,,
603 294 319,AUTUMNS CLEANING SERVICES,,,179 VERMILLION RD,CHEHALIS,WA,98532-8438,,,
602 272 483,COMMERCIAL CLEANING SERVICES,,,PMB 283 17837 1ST AVE,NORMANDY PARK,WA,98148,,,
603 475 011,CLEANSPACE CLEANING SERVICES,,,9639A FIRDALE AVE,EDMONDS,WA,98020-6519,,,
603 532 112,CRISNO CLEANING SERVICES LLC,,,23211 HWY 99 A304,EDMONDS,WA,98026,,,
603 150 742,CORTES CLEANING SERVICES,,,APT E112 14244 SE 6TH ST W-205,BELLEVUE,WA,98007,,,
601 354 104,CENTURY CLEANING SERVICES INC,,,PO BOX 301188,PORTLAND,OR,97230,,,
605 238 122,DG CLEANING SERVICES LLC,,,600 SW 5TH CT APT E202,RENTON,WA,98057-2397,,,
603 208 562,BELLAGIO CLEANING SERVICES INC,,,242 SPRAGUE VALLEY DR,MAPLE FALLS,WA,98266,,,
602 004 161,CASINO CLEANING SERVICES INC,,,12253 43RD AVE S,SEATTLE,WA,98178,,,
603 548 020,BUSTOS CLEANING SERVICES LLC,,,9403 16TH AVE SW APT 307,SEATTLE,WA,98106-2826,,,
602 604 802,FRONTLINE CLEANING SERVICES LL,,,PO BOX 587,BURLINGTON,WA,98233,,,
602 664 710,FRONTLINE CLEANING SERVICES CO,,,PO BOX 587,BURLINGTON,WA,98233,,,
604 714 945,GELEI CLEANING SERVICES,,,9211 NE 15TH AVE APT E 361,VANCOUVER,WA,98665,,,
604 654 516,GED CLEANING SERVICES LLC,,,15205 140TH WAY SE APT F201,RENTON,WA,98058-7896,,,
603 291 812,FRESH CLEANING SERVICES LLC,,,14105 278TH AVE NE,DUVALL,WA,98019-8324,,,
601 372 670,EMTER CLEANING SERVICES INC,,,121 VALLEY VIEW DR,PACIFIC,WA,98047,,,
603 234 800,GHB WINDOW CLEANING SERVICES,,,PO BOX 2731,RENTON,WA,98056-0731,,,
603 528 269,FAITH CLEANING SERVICES LLC,,,6802 CADY RD,EVERETT,WA,98203-5044,,,
,,,,,,,,,,
603 619 370,JD CLEANING SERVICES LLC,,,13320 26TH CT S,SEA TAC,WA,98168-3806,,,
602 837 311,"IMAGE CLEANING SERVICES, LLC",,,15027 131ST AVE SE,RENTON,WA,98058-2846,,,
604 215 740,HEIRESS CLEANING SERVICES LLC,,,3501 COLBY AVE APT 306,EVERETT,WA,98201,,,
602 736 562,ELLORINS CLEANING SERVICES,,,18023 E LAKE DESIRE DR SE,RENTON,WA,98058-9555,,,
603 609 473,DS CLEANING SERVICES LLC,,,919 E 65TH ST,TACOMA,WA,98404-2237,,,
604 701 750,GUERREROS CLEANING SERVICES,,,4504 PLOMONDON ST,VANCOUVER,WA,98661-6416,,,
603 302 521,GONZALES CLEANING SERVICES,,,12235 46TH AVE S,SEATTLE,WA,98178-3420,,,
604 264 742,GIGIS CLEANING SERVICES LLC,,,252 SPENCER CT,PACIFIC,WA,98047,,,
603 144 828,GORDONS CLEANING SERVICES OF,,,1195 CURTIS PKWY SE,CALHOUN,GA,30701-3639,,,
,,,,,,,,,,
603 385 455,IMPERIAL CLEANING SERVICES LLC,,,4811 CORINTH DR,PASCO,WA,99301-8566,,,
604 193 157,LADONNAS CLEANING SERVICES LL,,,9535 FREMONT AVE N,SEATTLE,WA,98103-3137,,,
602 652 747,KEATINGS CLEANING SERVICES LLC,,,PO BOX 264,SNOQUALMIE,WA,98065,,,
602 998 233,LYDIAS CLEANING SERVICES INC,,,PO BOX 3605,EVERETT,WA,98213-8605,,,
603 545 045,LOPEZ CLEANING SERVICES LLC,,,4805 S GARDEN ST,SEATTLE,WA,98118-3826,,,
603 544 109,KARIC CLEANING SERVICES LLC,,,3955 S 293RD ST,AUBURN,WA,98001-2534,,,
603 532 160,SILVER SHINE CLEANING SERVICES,,,6442 31ST AVE SW,SEATTLE,WA,98126-4219,,,
603 531 297,NEVAS CLEANING SERVICES LLC,,,PO BOX 225,DUVALL,WA,98019-0225,,,
604 811 108,MAEA CLEANING SERVICES LLC,,,6701 21ST ST NE,TACOMA,WA,98422-3722,,,
604 139 363,MPL CLEANING SERVICES LLC,,,9303 222ND ST E,GRAHAM,WA,98338-9186,,,
603 537 727,MACEDO CLEANING SERVICES LLC,,,PO BOX 363,MT LK TERRACE,WA,98043,,,
603 159 062,MJ CLEANING SERVICES,,,1415 GARFIELD ST S,TACOMA,WA,98444-3821,,,
,,,,,,,,,,
,,,,,,,,,,
602 442 393,EM CLEANING SERVICES,,,5324 84TH ST E STE G,TACOMA,WA,98446,,,
603 531 330,MBM CLEANING SERVICES LLC,,,21806 54TH AVE W,MT LK TERRACE,WA,98043-3206,,,
603 459 061,MAGIC HANDS CLEANING SERVICES,,,13110 NE 171ST PL STE B201,WOODINVILLE,WA,98072,,,
603 533 737,MP CLEANING SERVICES LLC,,,16626 6TH AVE W APT N101,LYNNWOOD,WA,98037-8825,,,
602 084 024,MANPOWER CLEANING SERVICES,,,21616 118TH PL SE,KENT,WA,98031,,,
604 605 525,MAIDENS CLEANING SERVICES LLC,,,32910 SE 42ND ST,FALL CITY,WA,98024,,,
,,,,,,,,,,
602 631 235,RCS CLEANING SERVICES LLC,,,1902 A ST SE # A207,AUBURN,WA,98002,,,
,,,,,,,,,,
604 598 404,RIO CLEANING SERVICES LLC,,,14606 NE JUNIPER AVE,VANCOUVER,WA,98684-8044,,,
602 033 788,CASCADE CLEANING SERVICES,,,PO BOX 796,BURLINGTON,WA,98233,,,
602 424 266,JANETS CLEANING SERVICES,,,820 S 219TH ST #9,DES MOINES,WA,98198,,,
603 588 125,"SERNA CLEANING SERVICES, LLC",,,415 LAKEVIEW RD UNIT K23,LYNNWOOD,WA,98087-2118,,,
603 476 067,OAKLEYS CLEANING SERVICES,,,4317 NE 66TH AVE APT 50F,VANCOUVER,WA,98661-3083,,,
603 391 752,SANCHEZ CLEANING SERVICES LLC,,,1305 W CASINO RD APT C1,EVERETT,WA,98204-1526,,,
601 952 791,EXCELLENT CLEANING SERVICES,,,10502 124TH AVE NE,KIRKLAND,WA,98033,,,
604 526 573,TITI SPARKLE CLEANING SERVICES,,,22815 LAKEVIEW DR APT G204,MT LK TERRACE,WA,98043-2835,,,
604 787 609,SVL CLEANING SERVICES LLC,,,1609 NW 65TH ST,VANCOUVER,WA,98663,,,
604 869 726,VIEIRA'S CLEANING SERVICES LLC,,,250 GAGE BLVD UNIT 1023,RICHLAND,WA,99352-9650,,,
604 015 714,VALOR CLEANING SERVICES LLC,,,7726 E BASELINE RD UNIT 108,MESA,AZ,85209,,,
602 999 849,SUPERIOR CLEANING SERVICES,,,PO BOX 821985,VANCOUVER,WA,98682,,,
603 579 351,NELLIS CLEANING SERVICES LLC,,,2371 LIBBEY RD APT A,COUPEVILLE,WA,98239-3209,,,
602 805 288,JUAREZ CLEANING SERVICES,,,233 1/2 174TH ST S,SPANAWAY,WA,98387-8705,,,
604 169 942,STAR CLEANING SERVICES LLC,,,2540 CONGER CT NW,OLYMPIA,WA,98502-4432,,,
,,,,,,,,,,
604 377 131,PEACHY CLEAN CLEANING SERVICES,,,3826 282ND ST NE,ARLINGTON,WA,98223-7352,,,
601 814 136,BEYOND CLEAN CLEANING SERVICES,,,12522 8TH AVENUE W W J302,EVERETT,WA,98204,,,
604 623 171,CORTEZ CLEANING SERVICES LLC,,,21829 31ST AVE S APT 4,DES MOINES,WA,98198-6758,,,
602 197 090,EXCEL CLEANING SERVICES,,,933 SO 29TH COURT,RENTON,WA,98055-5016,,,
604 396 572,509 CLEANING SERVICES,,,13318 E 11TH AVE,SPOKANE VALLEY,WA,99216-0617,,,
602 777 074,VICTORIAS CLEANING SERVICES TH,,,20211 10TH DR SE,BOTHELL,WA,98012,,,
,,,,,,,,,,
601 965 160,EXCELLENCE CLEANING SERVICES,,,PO BOX 2571,VANCOUVER,WA,98668,,,
601 655 378,ADVANCED CLEANING SERVICES,,,14214 NE 21ST ST,BELLEVUE,WA,98007,,,
600 237 438,WHITESIDE CLEANING SERVICES,,,CYNTHIA VAN GUSE 521 E GOODLANDER,SELAH,WA,98942,,,
,,,,,,,,,,
602 521 427,CLEAN SWEEP CLEANING SERVICES,,,170 SE ALPINE AVE,SHELTON,WA,98584,,,
602 949 677,FM CLEANING SERVICES,,,PO BOX 8423,LACEY,WA,98509-8423,,,
600 473 009,SISTERS CLEANING SERVICES,,,INC 6361 1ST AVE S,SEATTLE,WA,98108,,,
603 578 588,GUIRETH CLEANING SERVICES,,,10304 LAKEVIEW AVE SW,LAKEWOOD,WA,98499,,,
603 371 521,HARBOR CLEANING SERVICES,,,14720 SHERMAN DR NW,GIG HARBOR,WA,98332-8719,,,
604 677 654,QUINTOS CLEANING SERVICES LLC,,,409 NE 152ND AVE,VANCOUVER,WA,98684-8174,,,
602 708 699,GR CLEANING SERVICES,,,1617 NORTH 26TH ST #104,MOUNT VERNON,WA,98273,,,
603 573 374,BRAGGS CLEANING SERVICES,,,401 NEWCOMER ST,RICHLAND,WA,99354,,,
602 642 120,BUDGET CLEANING SERVICES,,,7207 198TH ST SW,LYNNWOOD,WA,98036,,,
603 352 404,CLEANING SERVICES,,,15912 SE 156TH ST,RENTON,WA,98058-6313,,,
602 898 605,RONALD CLEANING SERVICES,,,PO BOX 52721,BELLEVUE,WA,98015-2721,,,
604 287 554,VANTAY CONSTRUCTION COMPANY,,,4102 109TH ST SW APT 25 ATTN: DAVID FEREA,LAKEWOOD,WA,98499,,,
602 450 385,ANA CLEANING SERVICES,,,1309 S DATE ST,KENNEWICK,WA,99337-5384,,,
600 316 596,PRECISION CLEANING SERVICES,,,109 182ND ST SW,BOTHELL,WA,98012,,,
,,,,,,,,,,
602 573 295,MUTUAL-CLEANING SERVICES,,,18930 46TH AVE NE,ARLINGTON,WA,98223,,,
600 491 365,MASTERCARE CLEANING SERVICES,,,12222 82 NE,KIRKLAND,WA,98034,,,
602 610 260,EASTSIDE CLEANING SERVICES,,,14214 SE 14TH ST,BELLEVUE,WA,98007,,,
601 705 597,CONTAINER SERVICES UNLIMITED,,,PO BOX 147,CLE ELUM,WA,98922,,,
601 219 787,YORK FLOOR CLEANING SERVICES,,,12726 57TH DR SE,SNOHOMISH,WA,98296-5207,,,
602 923 656,RUDY'S SERVICES LLC,,,604 RAILROAD AVE S,KENT,WA,98032-6125,,,
,,,,,,,,,,
604 796 145,MAGIC SERVICES LLC,,,13016 SE 309TH PL,AUBURN,WA,98092,,,
604 824 470,NORTHWEST CLEANING SERVICES,,,7615 87TH AVE NE,MARYSVILLE,WA,98270-7411,,,
604 876 634,POOF CLEANING SERVICES,,,ALEJO PO BOX 742,KENT,WA,98035-0742,,,
601 062 125,AIRO SERVICES,,,4110 E 11TH ST,TACOMA,WA,98421,,,
604 315 896,PRONTO CLEANING SERVICES,,,11750 PHINNEY AVE N,SEATTLE,WA,98133,,,
,,,,,,,,,,
605 232 643,PURE ENERGY SERVICES,,,1612 C ST,LYNDEN,WA,98264-2020,,,
604 851 503,MBP CLEANING SERVICES,,,12837 SE 208TH ST,KENT,WA,98031-2323,,,
604 173 301,MARTINEZ CLEANING SERVICES,,,23416 61ST AVE S APT W202,KENT,WA,98032-3906,,,
603 509 255,NENAS CLEANING SERVICES,,,11305 E SPRAGUE AVE STE 104,SPOKANE VALLEY,WA,99206-5245,,,
,,,,,,,,,,
605 304 174,COFER CLEANING & SERVICES,,,PO BOX 381,EVERSON,WA,98247-0381,,,
603 507 623,JESSICAS CLEANING SERVICE,,,1204 N ROAD 36,PASCO,WA,99301,,,
601 848 422,B & B DRYWALL,,,23120 127TH AVE NE,ARLINGTON,WA,98223,,,
601 421 781,PRO TEAM JANITORIAL,,,330 SW 43RD ST STE K PMB 386,RENTON,WA,98057-4944,,,
601 083 165,CHAMPION CLEANING SERVICES,,,6840 LAKESIDE ST SW,OLYMPIA,WA,98512,,,
602 480 708,GP CLEANING SERVICES,,,1910 SW 321ST LN 11,FEDERAL WAY,WA,98023,,,
602 886 925,KELLYS CLEANING SERVICES,,,PO BOX 926,ALLYN,WA,98524-0926,,,
602 119 938,ESPERANZAS CLEANING SERVICES,,,302 SCOTT ST SE,TUMWATER,WA,98501,,,
600 634 664,MONARCH CLEANING SERVICES,,,7719 26TH AVE NW,SEATTLE,WA,98117,,,
601 742 976,KRISTAS CLEANING SERVICES,,,3224 N TAYLOR RD,OAK HARBOR,WA,98277,,,
604 075 981,JIG CLEANING SERVICES,,,7431 BEVERLY LN,EVERETT,WA,98203,,,
601 083 843,TOTAL CLEANING SERVICES,,,17621 66TH PL W,LYNNWOOD,WA,98037,,,
602 035 849,SNOW WHITE CLEANING SERVICE,,,20640 W SOUTH BANK RD,NINEMILE FALLS,WA,99026-9762,,,
601 665 555,PRIME CLEANING SERVICES,,,2433 SW LK ROESIGER RD,SNOHOMISH,WA,98290,,,
603 246 144,IMPERIAL CLEANING,,,2503 W PEARL ST,PASCO,WA,99301-3329,,,
601 480 013,COLE CLEANING SERVICES,,,6217 S 116TH ST,SEATTLE,WA,98178-0000,,,
603 337 716,EASTSIDE CLEANING SERVICES INC,,,31101 116TH AVE SE TRLR 30,AUBURN,WA,98092,,,
603 363 907,MOLINAS CLEANING SERVICESINC,,,9825 18TH AVE W APT H1,EVERETT,WA,98204-2106,,,
604 438 814,SPRING CLEANING SERVICES LLC,,,1025 S BRADLEY ST APT 2C,CHELAN,WA,98816-8704,,,
601 275 584,MR CHARLES CLEANING SERVICES L,,,4903 SW STEVENS ST,SEATTLE,WA,98116,,,
604 106 783,ADVANCED CLEANING SERVICES,,,100 ANDOVER PARK W STE 150-273,SEATTLE,WA,98188-0000,,,
603 311 642,NUMBER 1 JANITORIAL SERVICES,,,2100 NE 6TH PL,RENTON,WA,98056-3610,,,
,,,,,,,,,,
602 358 417,GILLY GIRLS CLEANING SERVICES,,,2702 N BRISTOL ST,TACOMA,WA,98407,,,
602 535 376,HOMETOWN SERVICES LLC,,,18644 142ND ST NE,WOODINVILLE,WA,98072,,,
601 867 756,MARYS HOUSE CLEANING SERVICES,,,PO BOX 255,YACOLT,WA,98675-0399,,,
601 881 579,MERRY BEE CLEANING SERVICES,,,BLDG 10 APT 304 23104 27TH AVE SE,BOTHELL,WA,98021,,,
600 600 164,A 1 CLEANING SERVICES,,,3411 O STREET,VANCOUVER,WA,98663,,,
600 576 617,WHITE KNIGHT CLEANING SERVICES,,,1241 GRANT RD,EAST WENATCHEE,WA,98802,,,
602 173 312,A-GLASS ACT CLEANING SERVICES,,,1229 SW BADE AVE,COLLEGE PLACE,WA,99324,,,
601 505 984,HOME TOUCH CLEANING,,,PO BOX 557,DRYDEN,WA,98821,,,
602 126 199,ROS ELUM CLEANING SERVICES,,,PO BOX 147,CLE ELUM,WA,98922,,,
604 635 141,AES,,,915 2ND ST,ASOTIN,WA,99402,,,
,,,,,,,,,,
,,,,,,,,,,
,,,,,,,,,,
603 173 406,D & J CLEANING SERVICES,,,5309 CASCADE DR,YAKIMA,WA,98908,,,
602 179 020,J & P CLEANING SERVICES,,,1243 WILLOW ST SE,LACEY,WA,98203,,,
600 512 570,CPO CLEANING SERVICES,,,W 5022 ROSEWOOD,SPOKANE,WA,99208,,,
601 057 934,KIM T NGUYEN CLEANING SERVICES,,,13913 102ND AVE NE,KIRKLAND,WA,98034,,,
603 407 307,EMERALD CLEANING SERVICES & LA,,,PO BOX 3008,SHELTON,WA,98584-4420,,,
601 002 130,ABSOLUTE CLEANING SERVICES,,,6944 SILLS RD,CLINTON,WA,98236,,,
601 843 424,E & E CLEANING SERVICES,,,17811 SE 283RD PL,KENT,WA,98042,,,
605 002 943,DUST & SHINE CLEANING SERVICES,,,124 DAKOTA WAY,FRIDAY HARBOR,WA,98250-5624,,,
604 586 862,HUIZARS CLEANING SERVICES,,,503 N NACHES AVE,YAKIMA,WA,98901-2406,,,
604 657 319,KEEN CLEANING SERVICES,,,1801 178TH STR CT E,SPANAWAY,WA,98387-4125,,,
604 859 693,SEATTLE CLEANING SERVICES LLC,,,2945 17TH ST SE,AUBURN,WA,98092-6457,,,
603 573 227,WILLS CLEANING SERVICES LLC,,,637 STRANDER BLVD BLDG E,TUKWILA,WA,98188-2214,,,
604 876 714,ULTIMATE CLEANING SERVICES THE,,,4337 S 254TH ST,KENT,WA,98032-5620,,,
604 096 834,AMBERS CLEANING SERVICES LLC,,,3113 13TH ST,BREMERTON,WA,98312-2841,,,
603 550 516,T&B CLEANING SERVICES LLC,,,15212 E MISSION AVE,SPOKANE VALLEY,WA,99037-9552,,,
604 922 371,TOP LEVEL CLEANING SERVICES,,,1928 S 240TH ST,DES MOINES,WA,98198-8631,,,
604 272 304,JWL CLEANING SERVICES INC,,,9601 SOUTH TACOMA WAY STE 104,LAKEWOOD,WA,98499-4421,,,
604 332 633,DL CLEANING SERVICES LLC,,,3126 E JACKSON AVE,SPOKANE,WA,99207-5526,,,
603 029 778,HOUSE CLEANING SERVICES,,,229 TACOMA BLVD,ALGONA,WA,98001-8508,,,
,,,,,,,,,,
602 335 212,GREEN HOUSE CLEANING SERVICES,,,19004 8TH AVE NW,SHORELINE,WA,98177,,,
604 777 022,EMERALD CLEANING SERVICES & LA,,,201 EUCLID AVE,SHELTON,WA,98584-3611,,,
604 728 771,ANAS CLEANING SERVICES,,,1207 S 28TH AVE,YAKIMA,WA,98902-4944,,,
604 459 843,J&M CLEANING SERVICES LLC,,,1120 9TH ST APT 52,WENATCHEE,WA,98801-6811,,,
604 466 058,H & F HOME CLEANING SERVICES,,,810 3RD ST,CLARKSTON,WA,99403-2622,,,
605 166 928,QUICK PRO CLEANING SERVICES,,,4420 W BROWN ST,PASCO,WA,99301-2808,,,
603 609 149,UNION JM CLEANING SERVICES,,,1776 LARCH AVE NE APT 101,ISSAQUAH,WA,98029-7833,,,
604 651 106,EXCEL CARPET CLEANING SERVICES,,,26828 MAPLE VALLEY BLACK DIAMO,MAPLE VALLEY,WA,98038-8309,,,
604 955 706,H&F HOME CLEANING SERVICES LLC,,,810 3RD ST,CLARKSTON,WA,99403-2622,,,
,,,,,,,,,,
604 339 102,J&B CLEANING SERVICES,,,PO BOX 6247,BELLEVUE,WA,98008-0247,,,
602 834 928,J & P CLEANING SERVICES LLC,,,7177 RADIUS LOOP SE,LACEY,WA,98513-5140,,,
,,,,,,,,,,
604 272 700,MIK & MATT CLEANING SERVICES L,,,4331 164TH PL SW,LYNNWOOD,WA,98087-6800,,,
602 997 851,"QUAL GREEN CLEANING SERVICES,",,,"DUSTIN ALAN LANE, M/TRE PO BOX 648",MARYSVILLE,WA,98270-0648,,,
,,,,,,,,,,
601 953 149,NASSEN CLEANING SERVICES,,,781 KAYNOR RD,ELLENSBURG,WA,98926,,,
,,,,,,,,,,
603 030 477,ALL CITY CLEANING SERVICES LLC,,,700 SLEATER KINNEY RD SE SUITE B248,LACEY,WA,98503-1113,,,
604 816 119,C&M CLEANING SERVICES LLC,,,136 SEATTLE BLVD S,ALGONA,WA,98001-8513,,,
602 480 997,K & A CLEANING SERVICES INC,,,17404 MERIDIAN E STE F-15,PUYALLUP,WA,98375-6234,,,
603 109 780,D A D S CLEANING SERVICES,,,4000 NE 7TH ST,RENTON,WA,98056-3835,,,
601 220 409,ACADEMY CLEANING SERVICE INC,,,8554 122ND AVE NE #316,KIRKLAND,WA,98033,,,
603 441 009,BLUE DIAMOND CLEANING SERVICES,,,402 NILE PL NE,RENTON,WA,98059-4887,,,
601 509 961,ALL BRITE CLEANING SERVICES,,,10013 NE HAZEL DELL AVE #105,VANCOUVER,WA,98685-0000,,,
604 876 101,DUSTBUSTERS CLEANING SERVICES,,,1132 164TH ST SE APT M104,MILL CREEK,WA,98012-1721,,,
604 337 237,JVA CLEANING SERVICES,,,4105 GOLDCREST DR NW,OLYMPIA,WA,98502-8528,,,
601 605 202,CASCADE CLEANING SERVICES,,,PO BOX 992,SUMNER,WA,98390-0000,,,
602 462 960,PIQUET LUMPER SERVICE,,,1902 A STREET SE #812,AUBURN,WA,98002,,,
602 419 548,BUENA VISTA CLEAING SERVICE,,,14704 EDGEWATER LN,LAKE FOREST PK,WA,98155,,,
601 562 785,BOWEN CLEANING SERVICES,,,33020 10TH AVE SW APT F-304,FEDERAL WAY,WA,98023,,,
601 676 455,KASEYS CLEANING SERVICES,,,3022 NE 140TH # 425,SEATTLE,WA,98125,,,
601 722 938,STAR BRIGHT CLEANING SERVICES,,,32211 11TH PL S # 69,FEDERAL WAY,WA,98003,,,
601 077 997,BRAVO CLEANING SERVICES,,,2530 14TH AVE S APT E,SEATTLE,WA,98144,,,
601 014 372,SOUND CLEANING SERVICES,,,121 SW 192ND,SEATTLE,WA,98166,,,
601 303 183,BRIGHT CLEANING SERVICES,,,1909 SW 162ND,SEATTLE,WA,98166-0000,,,
601 232 366,PROFESSIONAL CLEANING SERVICES,,,PO BOX 98587,SEATTLE,WA,98198-0000,,,
600 643 375,GLAD RAGS CLEANING SERVICES,,,603 EDGEMOORE DRIVE,HOPKINS,MN,55343,,,
601 573 443,R & M CLEANING SERVICES,,,407 VALLEY AVE NE #D-204,PUYALLUP,WA,98372,,,
601 745 183,CORONET HOME CLEANING SERVICES,,,2586 3RD AVE W,SEATTLE,WA,98119-2306,,,
601 729 646,TLC CLEANING SERVICES,,,2657 E HOQUIAM RD,HOQUIAM,WA,98550-9116,,,
601 698 151,DYNAMIC CLEANING SERVICES,,,28240 20TH AVE S,FEDERAL WAY,WA,98003,,,
601 764 612,E-C-S- INC,,,1901 PINEHURST AVE,EVERETT,WA,98203,,,
601 052 607,BOYCE OFFICE CLEANING SERVICES,,,14310 SE 256TH PL,KENT,WA,98042,,,
601 525 211,R & S CLEANING SERVICES,,,1215 SW 137TH ST #421,SEATTLE,WA,98166,,,
601 337 536,FRANK'S CLEANING SERVICES,,,14628 164TH PL SE,RENTON,WA,98056-0000,,,
601 358 540,COMMERCIAL CLEANING SERVICES,,,1455 S PUGET DR APT H204,RENTON,WA,98055-4390,,,
601 226 719,COZY CORNER CAFE,,,11407 SR 530 NE,ARLINGTON,WA,98223-0000,,,
601 674 494,C S P I,,,605 166TH ST CT E,SPANAWAY,WA,98387,,,
601 476 945,CEMPER BUSINESS,,,120 SEAMOUNT DR,BRINNON,WA,98320-9613,,,
601 503 824,K & D CLEANING SERVICES,,,12210 223RD AVE E,SUMNER,WA,98390,,,
601 717 614,ELITE CLEANING SERVICES,,,1213 WILLOW ST SE,LACEY,WA,98501,,,
601 272 987,COMMERCIAL CLEANING SERVICES,,,1711 168TH AVE NE,BELLEVUE,WA,98008-2945,,,
601 637 743,CHRISTIE CLEANING SERVICES,,,8811 WILKENSEN RD SE,YELM,WA,98597,,,
601 369 643,PETER'S CLEANING SERVICES,,,10515 NE 124TH CT,KIRKLAND,WA,98034-0000,,,
,,,,,,,,,,
601 410 082,TURN KEY CLEANING SERVICES,,,8314 194TH ST E,SPANAWAY,WA,98387,,,
601 158 882,PERFECTION CLEANING SERVICES,,,189 SAN JUAN DRIVE,SEQUIM,WA,98382,,,
601 745 491,COMMERCIAL CLEANING SERVICES,,,23240 88TH AVE S APT KK103,KENT,WA,98031-4487,,,
601 765 692,AFFORDABLE CLEANING SERVICES,,,23641 20TH AVE S # E-104,DES MOINES,WA,98198,,,
601 753 207,COMMERCIAL CLEANING SERVICES,,,PO BOX 703,ABERDEEN,WA,98520,,,
601 296 981,BRIGHTWAY CLEANING SERVICES,,,732 93RD ST SW,EVERETT,WA,98204,,,
601 507 657,ENCORE CLEANING SERVICES,,,9713 215TH AVE SE,SNOHOMISH,WA,98290,,,
601 177 341,EAGLE CLEANING SERVICES,,,1305 COLUMBIA ST STE 250,VANCOUVER,WA,98660-3490,,,
601 200 140,LYDIA'S CLEANING SERVICES,,,PO BOX 3605,EVERETT,WA,98213-8605,,,
601 689 307,EMERALD CITY CLEANING SERVICES,,,4920 SW 319TH LN # F-201,FEDERAL WAY,WA,98023,,,
601 339 433,A 1 CLEANING SERVICES,,,2113 N WYCOFF,BREMERTON,WA,98312-0000,,,
601 550 331,CINDIS CLEANING SERVICES,,,14250 130TH AVE NE,KIRKLAND,WA,98034,,,
601 089 651,EMERALD CITY CLEANING SERVICES,,,PO BOX 300026,SEATTLE,WA,98103,,,
,,,,,,,,,,
601 496 309,ELITE HOME CLEANING SERVICES,,,3320G E FOURTH PLAIN BLVD,VANCOUVER,WA,98661,,,
600 386 449,YOLANDA CLEANING SERVICES,,,10207 BECKER DR SW,TACOMA,WA,98499,,,
601 257 530,ARMANDOS CLEANING SERVICES,,,1700 17TH AVE,SEATTLE,WA,98122-2701,,,
601 785 309,FAULDS CLEANING SERVICES,,,PO BOX 12954,EVERETT,WA,98206,,,
601 715 941,PROFESSIONAL CLEANING SERVICES,,,18214 36TH AVE W I-11,LYNNWOOD,WA,98037,,,
601 649 359,A NO 1 CLEANING SERVICES,,,700 N REED ST #52,SEDRO WOOLLEY,WA,98284,,,
601 406 583,ABOUT CLEANING SERVICES,,,20826 9TH AVE SO,DES MOINES,WA,98198,,,
601 648 975,ANGELA'S CLEANING SERVICES,,,1311 S CENTRAL AVE STE F,KENT,WA,98032,,,
601 235 267,LINDAS CLEANING SERVICES,,,PO BOX 662,ORTING,WA,98360-0000,,,
600 218 604,BRANDON CLEANING SERVICES,,,24326 87TH PL W,EDMONDS,WA,98026-0000,,,
601 690 625,GUSTAV CLEANING SERVICES,,,PO BOX 6742,BELLEVUE,WA,98008,,,
601 386 204,ELITE CLEANING SERVICES,,,205 BROCK #5,WALLA WALLA,WA,99362-0000,,,
601 313 757,CONTRACTORS CLEANING SERVICES,,,133-1 UNION AVE NE,RENTON,WA,98059,,,
601 374 343,A & J CLEANING SERVICES,,,7910 HUSKY WAY SE,OLYMPIA,WA,98506,,,
601 219 199,RITE WAY CLEANING SERVICES,,,28112 68TH AVE E,GRAHAM,WA,98338-0000,,,
601 659 419,PREMIER CLEANING SERVICES,,,4916 146TH ST CT NW,GIG HARBOR,WA,98332,,,
601 562 100,SCRUB A DUB CLEANING SERVICES,,,11906 216TH AVEN CT,SUMNER,WA,98390-7621,,,
601 745 352,H AND S CLEANING SERVICES,,,927 S 137TH ST,SEATTLE,WA,98168,,,
601 544 935,MAN CLEANING SERVICES,,,18709 137TH CT SE,RENTON,WA,98058,,,
601 521 896,PROFESSIONAL CLEANING SERVICES,,,14115 134TH ST KPN,GIG HARBOR,WA,98329,,,
601 421 982,ACS CLEANING SERVICES,,,2001 SE TALTON AVE,VANCOUVER,WA,98684,,,
,,,,,,,,,,
600 118 062,GUARANTEED CLEANING SERVICES,,,30469 227TH PL SE,BLACK DIAMOND,WA,98010,,,
601 577 225,CARPET PRO CLEANING SERVICES,,,105 INGLEWOOD PARK,LONGVIEW,WA,98632,,,
601 254 520,CONSTRUCTION CLEANING SERVICES,,,4638 S 289TH PL,AUBURN,WA,98001-0000,,,
601 048 897,TOTAL CLEANING SERVICES,,,23703 91ST AVE W,EDMONDS,WA,98026,,,
601 509 217,ABLE CLEANING SERVICES,,,6811 NE 124TH AVE STE 61,VANCOUVER,WA,98682,,,
601 346 014,DUST BUNNIES CLEANING SERVICES,,,240 BROWN RD E,CHEHALIS,WA,98532-8924,,,
601 765 698,WHITE GLOVE CLEANING SERVICES,,,PO BOX 44,PROSSER,WA,99350,,,
601 224 710,PROFESSIONAL CLEANING SERVICES,,,8714 27TH AVE NE,MARYSVILLE,WA,98270-8022,,,
601 623 162,RCA CLEANING SERVICES,,,11962 44TH AVE S,SEATTLE,WA,98168,,,
601 443 787,JIN MI RESTAURANT,,,17227 32ND AVE W,LYNNWOOD,WA,98037,,,
601 104 731,CASCADE CLEANING SERVICES,,,11410 NE 124TH ST STE 128,KIRKLAND,WA,98034,,,
601 054 100,CLEANING SERVICES,,,306 S 7TH ST #210,TACOMA,WA,98402-3708,,,
601 674 696,LITTLE BEAR CLEANING SERVICES,,,2301 W PACIFIC #409,SPOKANE,WA,99204,,,
601 136 757,BEST IN WEST CLEANING SERVICES,,,PO BOX 367,MILTON,WA,98354,,,
601 369 014,LONG BEACH CLEANING SERVICES,,,4043 ALTURAS ST W,TACOMA,WA,98466,,,
601 465 764,J L CLEANING SERVICES,,,3001 S 288TH ST # 389,FEDERAL WAY,WA,98003,,,
601 574 116,GOLD STAR CLEANING SERVICES,,,2805 76TH AVE SW TRLR 3,OLYMPIA,WA,98512-7564,,,
601 651 055,B & K WINDOW CLEANING SERVICES,,,2201 W VALLEY HWY N STE A,AUBURN,WA,98001,,,
601 658 652,C & D CLEANING SERVICES,,,PO BOX 6034,EDMONDS,WA,98026-0034,,,
601 384 738,MAURICES CAFE,,,22993 MARINE VIEW DRIVE SOUTH APT D 307,DES MOINES,WA,98198,,,
601 141 035,B & S CLEANING SERVICES,,,PO BOX 4653,SPANAWAY,WA,98387,,,
601 516 250,CEDAR RIVER CLEANING SERVICES,,,24335 252ND AVE SE,MAPLE VALLEY,WA,98038-8221,,,
601 793 302,AMRY'S CLEANING SERVICES,,,1215 SANFORD AVE,RICHLAND,WA,99352,,,
601 356 829,JKL CLEANING SERVICES,,,PO BOX 901,EATONVILLE,WA,98328-0000,,,
601 736 732,LITTLE KIDDIES DAYCARE INC,,,3829 GOLDFINCH DR SE,LACEY,WA,98503,,,
,,,,,,,,,,
601 063 683,UNITED CLEANING SERVICES,,,PO BOX 3422,KENT,WA,98082,,,
601 590 651,AMS CLEANING SERVICES,,,PO BOX 772,REDMOND,WA,98073-0772,,,
601 072 123,M & H CLEANING SERVICES,,,6616 NE 58TH ST,VANCOUVER,WA,98661,,,
601 672 848,"CINDERELLA CLEANING SERVICES,",,,15267 NE 12TH N-263,BELLEVUE,WA,98007,,,
601 587 464,CONTRACT CLEANING SERVICES,,,2100 NE 131ST AVE,VANCOUVER,WA,98684,,,
,,,,,,,,,,
601 370 977,OTHELLO TRAINING CENTER,,,PO BOX 749,OTHELLO,WA,99344,,,
601 232 853,NORTH COUNTY CLEANING SERVICES,,,PO BOX 41,LAKEWOOD,WA,98259,,,
601 473 946,A&S CLEANING SERVICES,,,2645 S MORGAN ST,SEATTLE,WA,98108-3704,,,
601 700 491,LONNIES CLEANING SERVICES,,,18817 79TH AVENUE CT E,PUYALLUP,WA,98373,,,
601 204 308,MARIAS CLEANING SERVICES,,,PO BOX 249,VAUGHN,WA,98394,,,
601 066 456,MORGANITE CLEANING SERVICES,,,13826 58TH AVE NW,STANWOOD,WA,98292,,,
601 282 934,ADELINE'S CLEANING SERVICES,,,4908 S ASOTIN ST,TACOMA,WA,98408,,,
,,,,,,,,,,
601 723 299,O.K. MAINTENANCE CO,,,4255 65TH AVE,FIFE,WA,98424,,,
601 625 085,GEM CLEANING SERVICES,,,1420 NW GILMAN BLVD #2715,ISSAQUAH,WA,98027,,,
,,,,,,,,,,
601 249 126,IVORY CLEANING SERVICES,,,14309 NE WOOD-DUVALL RD,WOODINVILLE,WA,98072,,,
601 321 762,SUPERIOR CLEANING SERVICES,,,1702 C ST SE_#B,AUBURN,WA,98802,,,
601 317 353,STARLIGHT CLEANING SERVICES,,,10714 4TH AVE SE,EVERETT,WA,98208-0000,,,
601 679 721,SPECIALTY CLEANING SERVICES,,,19168 B VIKING WAY,POULSBO,WA,98370,,,
,,,,,,,,,,
601 695 283,T-N-T CLEANING SERVICES,,,10608 SHERIDAN AVE SOUTH,TACOMA,WA,98444,,,
601 059 953,RENAISSANCE CLEANING SERVICES,,,7205 FLETCHER BAY RD NE,BAINBRIDGE IS,WA,98110,,,
600 502 886,DUN-RITE CLEANING SERVICES,,,2010 WASHINGTON ST,BELLINGHAM,WA,98225-0000,,,
601 287 459,SPARKLE CLEANING SERVICES,,,9717 NE 140TH ST,BOTHELL,WA,98011,,,
,,,,,,,,,,
601 404 430,VICTORIAS CLEANING SERVICES,,,44559 SE 144TH ST,NORTH BEND,WA,98045-8714,,,
601 244 830,APEX CLEANING SERVICES,,,2424 S 204TH ST # 43,DES MOINES,WA,98198-5657,,,
,,,,,,,,,,
601 592 503,ABC CARPET CLEANING SERVICES,,,2604 OLYMPIC,OAK HARBOR,WA,98277,,,
601 788 462,SUPERIOR CLEANING SERVICES,,,13532 25TH AVE W,LYNNWOOD,WA,98087,,,
601 707 283,SAVAII CLEANING SERVICES,,,15617 10TH AVE SW,SEATTLE,WA,98166,,,
601 095 828,A-1 CLEANING SERVICES,,,9001 E LONGFELLOW,SPOKANE,WA,99212,,,
601 566 421,MANUAL LABOR CLEANING SERVICES,,,4414 A BAKER DR,CONCRETE,WA,98237,,,
601 408 546,EXECUTIVE CLEANING SERVICES,,,14200 1st Ave South #346,TUKWILA,WA,98168,,,
601 125 627,EVER READY CLEANING SERVICES,,,33718 38TH PL SW,FEDERAL WAY,WA,98023,,,
601 439 228,PRESTIGE CLEANING SERVICES,,,3405 S GUNNISON ST,TACOMA,WA,98409,,,
601 166 576,PAULAS CLEANING SERVICES,,,9808 WIDE HOLLOW RD,YAKIMA,WA,98908-9118,,,
601 299 640,JANET ULMAN CLEANING SERVICES,,,409 16TH AVE E #22,SEATTLE,WA,98112,,,
601 700 787,HOME MADE CLEANING SERVICES,,,16912 58TH AVE NW,STANWOOD,WA,98292,,,
600 567 346,DUTCHMAN CONSTRUCTION,,,2217 GRANDVIEW DR W,TACOMA,WA,98466,,,
601 487 325,SUZYS CLEANING SERVICES,,,16410 84TH ST NE # D-462,LAKE STEVENS,WA,98258,,,
601 540 597,CTT CLEANING SERVICES,,,1002 N 4TH ST,RENTON,WA,98055,,,
600 415 836,FARWEST CLEANING SERVICES,,,1621 S CENTRAL ST # E,KENT,WA,98031,,,
601 529 152,VIOLA CLEANING SERVICES,,,10434 NE 116TH ST,KIRKLAND,WA,98034,,,
601 765 387,SAVAII CLEANING SERVICES,,,15617 10TH AVE SW,BURIEN,WA,98166,,,
601 404 627,PAM'S DETAIL CLEANING SERVICES,,,19203 40TH AVE W #A 3,LYNNWOOD,WA,98036,,,
600 502 798,BARBS CLEANING SERVICES,,,PO BOX 462,OAK HARBOR,WA,98277,,,
601 126 818,MD CLEANING SERVICES,,,PO BOX 48581,SPOKANE,WA,99228-1581,,,
600 412 006,SPECIALIZED CLEANING SERVICES,,,198 TREMONT,PORT ORCHARD,WA,98366,,,
601 774 818,KINDRED CLEANING SERVICES,,,3002 100TH DR SE,EVERETT,WA,98205,,,
601 322 705,ALWAYS CLEANING SERVICES,,,15621 44TH AVE S,SEATTLE,WA,98188-0000,,,
601 643 569,CASCADE CLEANING SERVICES,,,1613 N WATER ST,ELLENSBURG,WA,98926-2466,,,
600 564 305,J B CLEANING SERVICES,,,1932 66TH AVE NE,TACOMA,WA,98422,,,
601 448 580,EXECUTIVE CLEANING SERVICES,,,"LARRY WILSON 110 5TH ST, LINCOLN, CA 95648.",LINCOLN,CA,95648,,,
601 115 788,WILLIAMS CLEANING SERVICES,,,1436 36TH AVE NE,OLYMPIA,WA,98506-2484,,,
603 445 032,Clean Green Clng/Rstrtn LLC,05/01/2015,05/01/2017,24122 23rd Ave SE,BOTHELL,WA,98021,,,
604 277 506,TAH-SHAY CLEANING & SERVICES,06/21/2018,06/21/2020,PO BOX 2434,BREMERTON,WA,98310,,,
603 544 543,PNW SERVICES & CLEANING,07/01/2023,07/01/2025,718 CAROLINE ST,PORT ANGELES,WA,98362,,,
604 134 140,CLEAN & BRIGHT HOUSES,09/08/2017,10/18/2021,2821 130TH PL SE,EVERETT,WA,98208,,,
602 768 478,CLEAN SIDE,02/27/2008,07/21/2018,1614 172ND AVE NE,BELLEVUE,WA,98008,,,
603 522 540,DIAMOND CLEAR CLEAN AIR HVAC,07/10/2015,08/08/2019,1927 W RIVERVIEW DRIVE,PASCO,WA,99301,,,
603 395 258,CLEAN AIR SOLUTIONS,05/27/2014,06/23/2020,5752 ASHWORTH AVE N,SEATTLE,WA,98103,,,
603 211 380,Charlie's Window Cleaning LLC,02/04/2015,02/04/2017,540 Ryan Rd Unit A,BUCKLEY,WA,98321,,,
600 533 794,CLEAN-RITE,04/10/2012,05/23/2024,18025 E 32ND AVE,GREENACRES,WA,99016,,,
602 723 815,CLEAN AIR CONNECT/CLEAN CONN,05/20/2011,07/06/2025,10 FIFTH ST,WENATCHEE,WA,98801,,,
603 018 847,Dupont Roof & Gutter Cleaning,08/18/2014,08/18/2024,709 penniman st,DUPONT,WA,98327,,,
602 142 132,PRO MASTER CLEANING 24HRS,10/16/2015,10/16/2017,9503 19th Ave E,TACOMA,WA,98445,,,
601 759 601,ULTRA CLEAN BLIND CLEANING,01/15/1999,09/22/2024,1660 MULBERRY LANE,WENATCHEE,WA,98801,,,
604 226 753,PRO DRAIN CLEANING,02/13/2018,02/18/2024,5654 194th Lane SE,ISSAQUAH,WA,98027,,,
602 425 220,NEAT CLEAN QUALITY PAINTING,08/02/2013,08/02/2025,12239 WOODINVILLE DR #G-202,BOTHELL,WA,98011,,,
602 163 594,Flooring Inst & Cleaning Servs,03/10/2015,04/20/2019,2406 SW Thistle ST,SEATTLE,WA,98106,,,
603 017 770,HYDRA-CLEAN,02/27/2018,01/22/2023,4935 N Lenhard Ln,DEER PARK,WA,99006,,,
602 559 004,MAGIC CLEAN HVAC CLEANING SRVS,03/30/2015,04/20/2019,16903 S Tapps Dr E,BONNEY LAKE,WA,98391,,,
604 484 213,CLEAN GREEN ECO HOME SERVICES,10/16/2019,10/16/2021,PO BOX 1629,PORT ORCHARD,WA,98366,,,
,CLEAN CUT TREE SERVICE,,,,PUYALLUP,WA,,NBOIM01144,CONSTRUCTION INFRACTION,01/11/2018
604 978 460,ANDYS CLEAN UP SERVICES & DEMO,11/10/2022,11/10/2024,4224 S TERRA VERDE DR,VERADALE,WA,99037,,,
603 442 751,CLEAN & GREEN SERVICE,06/01/2016,06/01/2018,10723 16TH AVE CT,TACOMA,WA,98444,,,
,CLEAN CUT TREE SERVICE,,,,PUYALLUP,WA,,NCZIK02407,CONSTRUCTION INFRACTION,04/10/2018
603 096 781,CLEAN IMAGE SERVICES INC,04/25/2011,04/25/2025,PO BOX 1327,ELLENSBURG,WA,98926,,,
601 599 104,CLEAN WATER SERVICES LLC,02/23/1995,07/21/2021,306 A FRONT ST,LYNDEN,WA,98264,,,
604 223 990,ECO CLEAN MAINTENANCE SERVICES,07/13/2018,06/18/2023,PO BOX 77251,SEATTLE,WA,98177,,,
603 446 518,PG CLEAN JANITORIAL OF WA,12/02/2015,12/02/2021,PO BOX 5091,LACEY,WA,98509,,,
601 035 971,"CLEAN SWEEP CHIMNEY SERVICE, A",05/02/2002,05/09/2018,2622 EAST BAY DR NW,GIG HARBOR,WA,98335,,,
604 345 162,CLEAN SLATE SERVICES,11/09/2018,11/09/2022,6619 152ND ST CT E,PUYALLUP,WA,98375,,,
601 512 272,A+ ELECTRIC SERVICE,08/20/2001,08/31/2025,7225 PACIFIC AVE SE,LACEY,WA,98503,,,
602 811 123,NW ELECTRIC SERVICES INC,03/13/2008,03/30/2024,32419 3RD AVE SW,FEDERAL WAY,WA,98023,,,
602 194 288,OBJECTIVE SERVICES,07/16/2002,02/26/2025,15804 SE 42 PLACE,BELLEVUE,WA,98006,,,
600 599 707,ALLIED ELECTRIC SERVICE INC,01/03/1986,01/31/2024,PO BOX 3855,LACEY,WA,98509,,,
602 722 695,JERUEL SERVICE,09/09/2009,12/02/2017,8302 NE 26TH AVE,VANCOUVER,WA,98665,,,
602 753 001,EVERGREEN LNDSCPG SLTN CLNG,04/07/2011,07/16/2025,20467 STEPHEN DR NE,KINGSTON,WA,98346,,,
602 320 560,WASHINGTON ENERGY SERVICES CO,09/04/2003,09/04/2017,3909 196TH ST SW,LYNNWOOD,WA,98036,,,
603 461 456,EVERGREEN SERVICES LLC,12/27/2004,06/12/2019,PO BOX 973,SUNNYSIDE,WA,98944,,,
603 368 203,BAYVIEW CLEANING/MAINT SVC LLC,05/02/2014,05/02/2022,186 SW CAMANO DR,CAMANO ISLAND,WA,98282,,,
604 263 209,GARCIA'S PLBG & DRAIN CLEANING,04/17/2018,04/17/2020,16107 44TH AVE E,TACOMA,WA,98446,,,
603 467 057,DUNCAN'S PRPTY CLEAN UP & HLNG,02/23/2015,09/08/2024,41 Pine Glen Ct,EASTON,WA,98925,,,
603 091 668,A1'S HANDYMAN & CLEANING SERVS,01/13/2020,01/13/2022,11546 85TH AVE S,SEATTLE,WA,98178,,,
602 475 827,A1 COMMERCIAL CLEANING LLC,08/21/2017,08/21/2019,1907 ORCHARD WAY,RICHLAND,WA,99352,,,
603 135 251,AAA CLEANING,06/14/2012,08/26/2017,25914 Lake Wilderness Country Club Dr SE,MAPLE VALLEY,WA,98038,,,
602 679 494,AAMERICAN CLEANING BOB'S INC,03/30/2007,06/22/2019,2709 S. DISHMAN-MICA,CITY OF SPOKANE VALL,WA,99206,,,
602 683 440,AABLE SAFETY CLEAN INC,04/19/2007,04/19/2021,PO BOX 3400,REDMOND,WA,98073,,,
603 364 763,8A Detailing & Cleaning LLC,01/30/2014,03/16/2024,19421 141st Ave SE,RENTON,WA,98058,,,
603 065 392,ALLIED CHIMNEY CLEANING LLC,05/11/2011,08/04/2018,15109 SE 140TH PL.,RENTON,WA,98059,,,
603 622 928,CLEAN EDGE,05/17/2018,05/17/2020,421 CASCADE WAY,LYNDEN,WA,98264,,,
603 395 258,CLEAN AIR SOLUTIONS,07/22/2022,07/22/2024,3214 72ND AVE SE,MERCER ISLAND,WA,98040,,,
603 490 828,5 STAR CLEANING,05/02/2018,09/19/2024,8515 STATE AVE #3,MARYSVILLE,WA,98270,,,
601 467 777,A 1 WINDOW CLEANING INC,01/28/2016,03/14/2022,420 S CHESTNUT,SPOKANE,WA,99201,,,
604 574 384,AIRBEST DUCT CLEANING,07/28/2022,07/28/2024,12718 64TH AVE E,PUYALLUP,WA,98373,,,
604 084 501,AFFORDABLE CLEANING,01/12/2018,01/12/2020,17505 16TH AVE E,SPANAWAY,WA,98387,,,
603 572 885,AIR STRIKE DUCT CLEANING,02/02/2016,02/02/2018,8426 VERNON RD,LAKE STEVENS,WA,98258,,,
601 901 928,BEST PARKING LOT CLEANING INC,05/28/2002,05/28/2020,2412 INTER AVE,PUYALLUP,WA,98372,,,
602 555 455,ALIS CLEANING,02/22/2018,02/22/2020,811 N 24TH AVE,YAKIMA,WA,98902,,,
603 608 806,ADVANTA CLEAN OF CENTRAL SEA,03/20/2017,03/20/2023,2520 WESTLAKE AVE N,SEATTLE,WA,98109,,,
604 898 540,ABELLA WINDOW CLEANING INC,08/05/2022,08/05/2024,15501 56TH AVE W,EDMONDS,WA,98026,,,
604 594 309,ABA COMMERCIAL CLEANING,09/09/2020,09/08/2025,6108 E PORTLAND AVE,TACOMA,WA,98404,,,
602 400 527,ABSOLUTE WINDOW CLEANING,04/23/2019,04/23/2023,PO BOX 573,ANACORTES,WA,98221,,,
602 338 696,ACTION FINAL CLEAN,11/30/2012,02/05/2021,816 W FRANCIS #101,SPOKANE,WA,99205,,,
602 675 966,ACROPOLIS GUTTER CLEANING LLC,01/15/2008,04/17/2021,3719 NE 74TH PL,SEATTLE,WA,98115,,,
603 437 967,ALL PRO DUCT CLEANING LLC,12/10/2014,12/02/2023,11112 NE 84TH ST,VANCOUVER,WA,98662,,,
604 534 240,AR CLEANING LLC,05/20/2020,05/20/2022,3612 NE 4TH ST TRLR 40,RENTON,WA,98056,,,
603 473 819,A R Cleaning Inc,02/24/2015,02/24/2017,PO Box 10020,SPOKANE,WA,99209,,,
604 272 434,AR CONSTRUCTION CLEANING LLC,05/15/2018,06/10/2022,PO BOX 1,HUBBARD,OR,97032,,,
604 079 137,ARMSTRONG CLEANING LLC,04/06/2017,04/06/2019,8623 9th Ave SW,SEATTLE,WA,98106,,,
600 573 013,ARK CARPET & UPHOLSTERY CLEAN,09/03/1985,05/09/2022,PO Box 14722,CITY OF SPOKANE VALL,WA,99214-0722,,,
604 592 403,A & R CLEANING,03/04/2020,07/18/2024,8103 47TH AVE NE,MARYSVILLE,WA,98270,,,
604 949 625,ALL PRO EXTERIOR CLEANING LLC,12/09/2022,12/09/2024,3022 272ND PL NW,STANWOOD,WA,98292,,,
602 366 757,WA GREEN CLEAN LANDSCAPING,10/20/2014,10/20/2020,1211 167TH PL SW,LYNNWOOD,WA,98037,,,
604 639 744,AMV HOOD CLEANING,08/21/2020,08/21/2022,1915 S 308TH ST,FEDERAL WAY,WA,98003,,,
604 286 258,AP COMMERCIAL CLEANING LLC,04/10/2020,04/10/2022,24620 RUSSELL RD,KENT,WA,98032,,,
604 913 655,ANGELS CLEANING & MAINT LLC,06/21/2022,06/21/2024,20409 8TH AVE CT E,SPANAWAY,WA,98387,,,
604 287 730,B CLEAN ENTERPRISES,05/24/2018,05/24/2020,5513 Thornbury Dr Se,OLYMPIA,WA,98513,,,
604 789 687,BAZERE KING CLEANING LLC,09/03/2021,09/03/2023,14916 93RD BLVD NE,BOTHELL,WA,98011-7036,,,
603 472 706,BEST CLEAN CARPETS AND MORE,03/23/2015,03/23/2017,PO BOX 1256,BRUSH PRAIRIE,WA,98606,,,
603 156 850,AMERICA ROOF CLEANING,09/07/2016,09/07/2018,10620 NE 175th St #306,BOTHELL,WA,98011,,,
603 497 981,BEST OUTDOOR CLEANING LLC,04/29/2015,04/29/2017,213 203RD PL SW,LYNNWOOD,WA,98036,,,
604 620 097,BAYSIDE EXTERIOR CLEANING LLC,07/22/2021,09/07/2025,2302 4TH AVE WEST,OLYMPIA,WA,98502,,,
604 595 244,AWR RESTORATION & CLEANING,01/13/2021,01/13/2025,21006 132nd Ave SE,KENT,WA,98042,,,
604 942 408,ASNEW EXTERIOR CLEANING,08/29/2022,08/29/2024,322 LEIGHLAND AVE,PORT ANGELES,WA,98362,,,
604 774 246,A&W WINDOW CLEANING,03/24/2022,03/24/2024,4004 E BOONE AVE,SPOKANE,WA,99202,,,
604 188 904,BAVARIAN WINDOW CLEANING LLC,05/08/2018,05/08/2022,1421 E Island Lake Dr,SHELTON,WA,98584,,,
603 178 534,Badger Cleaned Homes & Gardens,04/24/2015,04/24/2017,1003 SW 119th St,SEATTLE,WA,98146,,,
603 484 873,CASCADIA CLEANING & REMOVL LLC,06/26/2015,07/24/2025,909 18TH ST SW,PUYALLUP,WA,98371,,,
603 454 937,CASCADE CONST & CLEAN-UP LLC,01/27/2023,01/27/2025,5010 144TH DR SE,SNOHOMISH,WA,98290,,,
604 432 947,CASCADE CLEANING SOLUTIONS LLC,07/31/2019,07/31/2021,9204 219TH ST CT E,GRAHAM,WA,98338,,,
604 121 288,CERTIFIED MOLD CLEANING LLC,05/12/2017,07/22/2023,6615 McEwan Rd,LAKE OSWEGO,OR,97035,,,
604 527 688,CASTLE CLEAN LLC,10/10/2019,10/10/2025,511 S Lucille Ct,SPOKANE VALLEY,WA,99216,,,
604 570 526,BRILLIANT CLEANING,12/16/2020,12/16/2024,5115 FLORES LN,PASCO,WA,99301,,,
604 609 195,CLEAN CUT BUILDERS LLC,06/05/2020,06/05/2022,50 APOLLO BLVD,RICHLAND,WA,99352,,,
605 343 618,CLEAN CUT CONTRACTING LLC,10/10/2023,10/10/2025,705 NE COWLS STREET,MCMINNVILLE,OR,97128,,,
605 188 851,CGM CARPET CLEANING LLC,05/12/2023,05/12/2025,409 NE 112TH CIR,VANCOUVER,WA,98685,,,
605 017 818,BRIGHTSERVICE CLEANING LLC,04/03/2023,04/03/2025,10804 NE 97TH AVE,VANCOUVER,WA,98662,,,
604 606 083,B&L HAULING & CLEANING,05/29/2020,04/11/2025,2415 E. 1st Ave.,SPOKANE,WA,99202,,,
603 297 600,Clean Air Comfort Systems,07/07/2015,08/20/2025,3620 IRONGATE RD,BELLINGHAM,WA,98226,,,
605 180 603,CLARITY CLEANING & BIOMDTN LLC,06/05/2023,06/05/2025,1227 NE 143RD ST 304B,SEATTLE,WA,98125,,,
604 622 126,CLEAN AIR LAWN CARE,10/04/2023,10/04/2025,12161 CLUBHOUSE LANE,SEATTLE,WA,98108,,,
602 558 753,A & W CLEANING,03/08/2016,04/15/2022,PO Box 10792,SPOKANE,WA,99209,,,
604 236 584,CLEAN AIR MOVERS LLC,10/08/2018,10/08/2020,28921 BEACH DR,POULSBO,WA,98370,,,
603 560 544,CIOCEA CLEANING,08/22/2016,03/11/2022,12015 SE 260TH PL,KENT,WA,98030,,,
604 268 213,CLEAN BLAST LLC,04/27/2018,04/27/2020,16320 N Haystack Ct,NINE MILE FALLS,WA,99026,,,
604 978 500,CHARITO'S CLEANING LLC,03/16/2023,03/16/2025,360 NW DOGWOOD ST,ISSAQUAH,WA,98027,,,
604 780 359,CHC COLLINS HOOD CLEANING LLC,09/27/2021,09/27/2023,PO BOX 10322,YAKIMA,WA,98909,,,
604 486 227,CI CLEANING & PAINTING,08/21/2019,08/21/2021,2321 63RD ST SE,AUBURN,WA,98092,,,
602 008 266,CHUCK'S WINDOW CLEANING,01/04/2017,01/04/2019,1720 S DURANGO,TACOMA,WA,98405,,,
604 765 500,CLEAN CUT CONCRETE LLC,09/07/2021,09/07/2023,900 SE PARK CREST AVE,VANCOUVER,WA,98683,,,
604 143 154,Clean Cut Grounds Co,09/07/2017,09/07/2021,18809 E Marlin Dr,OTIS ORCHARDS,WA,99027,,,
604 583 520,CLEAN CUT FLOORING LLC,02/14/2020,02/14/2022,10619 E BURNSIDE ST APT 53,PORTLAND,OR,97216,,,
604 919 437,CLEAN CREEK LLC,06/24/2022,06/24/2024,PO BOX 570,WOODLAND,WA,98674,,,
604 620 788,CLEAN CUTS LANDSCAPING,07/23/2020,07/23/2022,16534 PERSIMMON CT SE,YELM,WA,98597,,,
604 930 439,CLEAN CUTS LANDSCAPING LLC,08/19/2022,08/19/2024,PO BOX 116,YELM,WA,98597,,,
601 356 266,CLEAN CUT DRYWALL CO,12/13/1991,12/04/2020,15512 33RD AVE E,TACOMA,WA,98446,,,
603 423 092,BIOHAZARD CLEANING & REMED,01/09/2015,01/09/2017,27048 118TH PL SE,KENT,WA,98030,,,
604 608 799,BGJ LANDCARE & CLEANING LLC,06/18/2020,06/18/2024,31055 KENT BLACK DIAMOND RD SE,AUBURN,WA,98092,,,
602 373 410,BIRD'S EYE ROOF & EXT CLEANING,06/13/2008,07/25/2023,228 Fire Station Ave,SEABECK,WA,98380,,,
604 530 076,CLEAN CUT CARPENTRY LLC,11/08/2019,11/09/2023,PO BOX 245,RICHLAND,WA,99352,,,
604 579 847,CLEAN CUT CONSTRUCTION,03/03/2020,03/03/2024,2435 SW 326TH,FEDERAL WAY,WA,98023,,,
604 407 962,CLEAN CUT REMODELING & RPR LLC,07/12/2019,07/12/2021,22407 ENTWHISTLE RD E,BUCKLEY,WA,98321,,,
603 214 798,THE CLEAN QUEEN LLC,11/02/2012,08/22/2019,3414 34th Ave. S.,SEATTLE,WA,98144,,,
603 407 104,THE CLEAN TEAM,06/19/2019,06/20/2025,6310 GOODHEW RD,SEDRO WOOLLEY,WA,98284,,,
602 392 150,CLEAN DR WNDW & GUTTER CLNG,06/25/2007,07/29/2017,4050 W LK SAMM PKWY NE 223,REDMOND,WA,98052,,,
603 408 855,CLEAN & CLEAR WINDOWS LLC,05/18/2015,07/23/2025,11010 Harbor Hill Dr Suite B11,GIG HARBOR,WA,98332,,,
604 274 340,CLEAN COAT PAINTING LLC,05/22/2018,05/22/2020,3245 HUNTER BLVD S,SEATTLE,WA,98144,,,
603 420 636,CLEAN CUT LAWNS,02/04/2016,02/04/2018,PO BOX 2232,MOUNT VERNON,WA,98273,,,
604 607 848,CLEAN CUT LANDSCAPE & DSGN INC,09/22/2020,09/22/2022,102 GROVER ST #210,LYNDEN,WA,98264,,,
602 864 182,Clean Cut Lawn Care LLC,03/09/2009,05/04/2021,517 106th Ave Ct E,EDGEWOOD,WA,98372,,,
604 690 292,CLEAN CUT PAINTING LLC,05/17/2021,05/17/2025,20005 108TH AVE SE,KENT,WA,98031,,,
605 262 883,THE CLEAN MACHINE PRESR WASHNG,06/23/2023,06/23/2025,PO BOX 249,PORT ORCHARD,WA,98366,,,
603 498 339,CLEAN ENERGY COLLECTIVE LLC,05/21/2015,05/21/2017,361 CENTENNIAL PKWY STE 300,LOUISVILLE,CO,80027,,,
604 566 461,CLEAN AND HAPPY LLC,01/30/2020,01/30/2022,4901 168TH ST SW APT H104,LYNNWOOD,WA,98037,,,
604 712 945,CLEAN & GREEN YARD CARE,03/14/2023,03/14/2025,1916 HARRIS AVE,BELLINGHAM,WA,98225,,,
603 071 348,Clean Home LLC,01/12/2011,06/27/2023,2811 Isaacs Avenue,WALLA WALLA,WA,99362,,,
602 638 238,CLEAN-N-ROOTER LLC,07/29/2011,09/12/2023,PO 709,SEABECK,WA,98380,,,
604 703 687,"CLEAN INFUSION, LLC",02/12/2021,02/12/2023,9220 RED CLIFF RD NW,QUINCY,WA,98848,,,
605 170 366,CLEAN GREEN LANDSCAPING LLC,06/26/2023,06/26/2025,26809 15TH AVE S,DES MOINES,WA,98198,,,
603 381 784,CLEAN PLUMBING LLC,05/08/2019,05/26/2023,PO BOX 2440,WALLA WALLA,WA,99362,,,
604 279 318,CLEAN EDGE FLOORING INC,06/05/2018,06/05/2020,465 S DOGWOOD DR,CORNELIUS,OR,97113,,,
605 305 782,CLEAN FLOORS LLC,09/08/2023,09/08/2025,8710 5TH AVE W,EVERETT,WA,98204,,,
603 183 867,CLEAN & GREEN CONSTRUCTION INC,02/24/2012,02/28/2020,263 GLACIER RIDGE RD,SEQUIM,WA,98382,,,
604 630 859,CLEAN FIX LLC,01/22/2021,01/22/2025,13195 NE 186th Pl,Woodinville,WA,98072,,,
602 898 810,CLEAN PROS INC,10/16/2009,02/19/2018,PO BOX 305,MOSES LAKE,WA,98837,,,
604 379 080,CLEAN NORTHWEST LLC,02/01/2019,02/01/2021,4101 PLOMONDON ST,VANCOUVER,WA,98661,,,
604 740 281,CLEANING PARADISE LLC,06/08/2021,06/08/2023,2621 RUSSELLWAY UNIT A,EVERETT,WA,98204,,,
605 317 525,CLEAR & CLEAN LLC,09/27/2023,09/27/2025,441 SE SNIDER RD,SHELTON,WA,98584,,,
604 407 613,CLEANING PNTG & LNDSCPG DR LLC,04/03/2019,04/03/2021,2011 S Craig Rd Unit 1,AIRWAY HEIGHTS,WA,99001,,,
604 878 085,CLEAN N FIX LLC,06/07/2022,06/07/2024,1133 PINEDROP LOOP SE,OLYMPIA,WA,98513,,,
604 908 647,CLEAN LINE FINISHES LLC,06/08/2022,06/08/2024,102 PARKHILL ST,CASHMERE,WA,98815,,,
604 464 174,CLEAN LOOK EXTERIOR SOFTWASH,07/31/2019,07/31/2021,4244 SWIFT AVE SW,PORT ORCHARD,WA,98367,,,
604 570 524,CLEAN LINE FINISHES,02/27/2020,02/27/2022,PO Box 571,MONITOR,WA,98836,,,
604 006 055,CLEAN MACHINE RESTORATION LLC,09/22/2016,09/22/2020,5614 S Holly Rd,SPOKANE,WA,99224,,,
603 494 174,Clean Lines LLC,04/14/2015,04/19/2025,PO BOX 1900,DEER PARK,WA,99006,,,
604 774 882,CLEAN PRO MOSS LLC,09/20/2021,09/20/2025,5107 N HIGHLAND,TACOMA,WA,98407,,,
603 458 261,CLEAN SWEEP JANITORIAL,01/20/2016,01/20/2024,21 Saint Andrews Dr.,CLE ELUM,WA,98922,,,
604 700 621,CLEAN STREAK INC,09/21/2023,09/21/2025,PO Box 1016,KALAMA,WA,98625,,,
604 724 431,CLEAN SLATE LLC,03/24/2021,03/24/2023,2323 E Winger Rd,SPOKANE,WA,99208,,,
603 292 399,CLEAN SPOT PRESSURE WASHING,04/12/2016,04/12/2018,PO BOX 1446,DUVALL,WA,98019,,,
604 439 142,CLEAN SLATE PRESSUR WSHNG LLC,09/11/2019,09/11/2021,12630 195TH AVE COURT EAST,BONNEY LAKE,WA,98391,,,
604 995 224,Clean Slate Hauling & Junk Rmv,08/02/2023,08/02/2025,18508 Cedar Park LN SE,YELM,WA,98597,,,
601 241 619,CLEANING RESTORATION CONTRS,04/15/1996,01/05/2019,4426 2ND AVE NW,SEATTLE,WA,98107-4317,,,
603 307 257,EMERALD CITY CLEANING,08/09/2018,08/09/2020,1408 Elliott Ave W,Interbay,WA,98119,,,
604 803 164,CLEAN SMART,02/09/2023,02/09/2025,20015 BALLINGER WAY NE,SHORELINE,WA,98155,,,
602 874 062,CLEANING SVC & CLJ PAINTING,01/04/2012,01/22/2017,2211 108TH AVE SE #40,KENT,WA,98031,,,
603 429 145,CLEANING SOLUTIONS,12/29/2014,10/12/2023,18820 MERIDIAN EAST,PUYALLUP,WA,98375,,,
605 231 821,CLEAN WATERS PRSSR WSHNG LLC,05/22/2023,05/22/2025,603 NW 17TH ST,BATTLE GROUND,WA,98604,,,
604 060 625,CLEANING WITH DAVIS LLC,11/30/2016,11/30/2018,694 W ORCHARD AVENUE,HERMISTON,OR,97838,,,
604 078 860,CLEAN YOUR HEAT INC,06/29/2018,06/29/2020,16323 127TH AVE SE,RENTON,WA,98058,,,
604 155 431,CLEANING RESTORATION CONTRS,12/18/2017,12/18/2019,PO BOX 98617,DES MOINES,WA,98198,,,
604 482 058,CLEARVIEW CARPET CLEANING,10/02/2019,10/26/2023,1001 Cooper Point Rd SW,OLYMPIA,WA,98502,,,
601 317 102,CLEAN WORKS,02/11/2015,02/11/2017,155 SCHOOL HOUSE RD,KELSO,WA,98626,,,
604 041 472,CLEAN SLATE SPOKANE LLC,10/14/2016,10/14/2020,1902 S GARDEN LN,SPOKANE,WA,99224,,,
604 803 781,CLEAN SWEEP SEALCOATING LLC,01/13/2023,01/13/2025,3902 NW KAUFFMAN AVE,VANCOUVER,WA,98660,,,
604 346 382,CLEAN TILE INSTALL & DESIGN,12/26/2018,04/16/2023,15232 SE 272ND ST UNIT 72,KENT,WA,98042,,,
604 589 486,CLEAN VIEW INC,09/27/2023,09/27/2025,1807 19TH AVE CT,MILTON,WA,98354,,,
604 677 852,CLEANS UP NICELY LLC,02/02/2021,02/02/2025,3213 15TH ST,BREMERTON,WA,98312,,,
602 073 804,CONTRACTORS FINAL CLEAN LLC,12/07/2000,05/18/2023,1732 220TH AVE SE,SAMMAMISH,WA,98075,,,
602 636 193,CONAN'S DRAIN CLEANING LLC,08/25/2006,10/11/2023,8616 EDGEWATER DR SW,LAKEWOOD,WA,98499,,,
602 358 976,CORIES COMMERCIAL CLEANING,09/17/2010,09/17/2018,263 Friday Creek rd.,BELLINGHAM,WA,98229,,,
605 343 491,COSMIC SHINE CLEANING LLC,11/02/2023,11/02/2025,805 S GOLD ST,CENTRALIA,WA,98531,,,
604 558 821,CORNERSTONE CLEANING LLC,09/22/2021,10/31/2025,11750 Clear Creek Rd NW,Silverdale,WA,98383,,,
603 010 742,Complete Roof Cleaning,02/06/2018,02/06/2020,PO BOX 432,OCEAN PARK,WA,98640,,,
603 276 142,Drainage Systems Cleaning,11/12/2014,03/10/2019,PO Box 46876,SEATTLE,WA,98146,,,
604 496 520,EASTSIDE CLEANING SOLUTNS LLC,11/13/2019,11/13/2021,2226 B Elliott Ave,SEATTLE,WA,98121,,,
601 900 020,COWBOY'S CONSTRUCTION CLEAN,12/31/2013,01/25/2018,PO BOX 1905,WOODLAND,WA,98674,,,
604 750 641,COAT & CLEAN LLC,07/26/2021,07/26/2023,210 E ROAD OF TRALEE,SHELTON,WA,98584,,,
604 523 194,CMA ROOF CLEANING LLC,09/26/2019,09/26/2021,9609 S 192ND ST,RENTON,WA,98055,,,
603 328 985,D & H CARPET CLEANING LLC,09/24/2010,03/20/2025,1112 NW 75th Circle,Vancouver,WA,98665,,,
604 586 490,DEEP CLEANING GARDENS,10/30/2020,07/10/2025,512 FILBERT LN,BURLINGTON,WA,98233,,,
604 279 291,DIVERSITY AIR VENT CLEANING,10/12/2018,10/12/2020,42130 PINE ST,CONCRETE,WA,98237,,,
604 969 872,CLEAN ENERGY INNOVATORS LLC,10/05/2022,10/05/2024,600 1ST AVENUE,SEATTLE,WA,98104,,,
605 305 033,DL DEEP CLEANING & LNDSCPG LLC,09/01/2023,09/01/2025,5776 SALISH ROAD,BLAINE,WA,98230,,,
604 498 210,DAMAC & ASSOCIATES CLEAN LLC,09/09/2019,09/14/2023,14670 SW PEAK CT,PORTLAND,OR,97224,,,
604 861 152,D&M CLEANING & MAINT LLC,02/01/2022,02/01/2024,PO BOX 10120,SPOKANE,WA,99209,,,
603 266 535,CRAWL SPACE CLEANING PROS INC,01/31/2013,02/08/2025,"10733 ""A"" Street South",Tacoma,WA,98444,,,
604 719 875,CRIS'S CLEANING LLC,06/24/2021,06/24/2025,12212 39TH AVE NE,MARYSVILLE,WA,98271,,,
604 408 066,DAISYS CLEANING & HANDY MAN,07/06/2021,07/06/2023,3715 S ALASKA ST,TACOMA,WA,98418,,,
604 774 071,CROWN EXTERIOR CLEANING LLC,08/19/2021,08/19/2023,552 W RIVERSIDE AVE,SPOKANE,WA,99201,,,
604 769 250,EASTSIDE ROOF CLEANING,10/12/2021,10/12/2025,22923 35TH PL NE,GRANITE FALLS,WA,98252,,,
604 934 126,YETI GUTTER & ROOF CLEANING,03/03/2023,03/03/2025,1427 NW CAIRO ST,SILVERDALE,WA,98383,,,
603 482 638,A TO Z YARD & CLEANING SVC LLC,12/07/2015,12/11/2023,PO Box 30011,BELLINGHAM,WA,98228,,,
604 725 422,Yakima Clean Green LLC,04/21/2021,04/21/2023,131 Sparrow Ln,YAKIMA,WA,98908,,,
604 735 550,WW BIN CLEANING SOLUTIONS LLC,06/07/2021,06/07/2023,620 CHASE AVE,WALLA WALLA,WA,99362,,,
604 295 936,XTREME CLEANING SOLUTIONS,10/10/2018,10/10/2020,2810 174th St E,TACOMA,WA,98445,,,
604 846 299,ECO EXTERIOR CLEANING LLC,04/18/2022,04/18/2024,1207 61ST AVE CT NE,TACOMA,WA,98422,,,
602 326 914,Cliff's Window Cleaning,02/02/2015,02/05/2021,31065 9th Ave S,FEDERAL WAY,WA,98003,,,
603 212 405,CLEAR VIEW WINDOW CLEANING,04/22/2016,04/22/2020,3773 S. LINCOLN ST,KENNEWICK,WA,99338,,,
604 811 713,CLOUD B CUTTING & CLEANING SER,12/06/2021,12/06/2023,806 W ENTIAT AVE,KENNEWICK,WA,99336,,,
604 163 142,ELITE CONTRNG & FINAL CLEAN,01/17/2018,01/17/2020,PO Box 12212,MILL CREEK,WA,98082,,,
602 301 054,EASTSIDE ROOF CLEANING LLC,07/24/2003,08/17/2023,21806 State Route 9 SE,WOODINVILLE,WA,98072,,,
604 776 471,WHISTLE DRAIN CLEANING LLC,08/09/2021,08/09/2023,5511 PARKCREST DR ST,AUSTIN,TX,78731,,,
604 620 294,WHITE GLOVE CLEANING SRVC LLC,09/22/2020,09/22/2022,6420 NE 65TH ST,VANCOUVER,WA,98661,,,
603 404 653,WEST COAST MARINE CLEANING,08/06/2014,09/21/2024,PO BOX 1210,VANCOUVER,WA,98666,,,
603 479 834,WE CLEAN,04/22/2015,04/22/2017,38012 35TH WAY S,AUBURN,WA,98001,,,
603 489 831,WENDY'S GREEN CLEAN,05/14/2015,05/25/2019,PO BOX 7181,TACOMA,WA,98417,,,
604 545 661,WICKED CLEAN,09/24/2020,09/24/2024,2468 Rocky Way,Coupeville,WA,98239,,,
601 414 829,WORLD CLASS CLEANING,03/09/2018,03/09/2020,PO BOX 546,FOX ISLAND,WA,98333,,,
604 909 299,WRIGHTS ROOF CLEANING,04/03/2023,04/03/2025,729 106TH ST S,TACOMA,WA,98444,,,
604 943 914,WIZARDS CLEANING,09/19/2022,09/19/2024,17739 N BEACHSIDE DR SE,YELM,WA,98597,,,
604 578 696,WILBUR'S GUTTER CLEANING SVCS,08/03/2020,08/18/2024,5950 NE Timberland Dr,KINGSTON,WA,98346,,,
604 639 218,WINDOW CLEANING 4 U LLC,05/18/2022,05/18/2024,12020 JUANITA DR NE,KIRKLAND,WA,98034,,,
602 009 827,TRIPLE CROWN CLEANING,07/07/2003,03/09/2017,905 N WAUGH RD,MOUNT VERNON,WA,98274,,,
603 414 936,TRIPLE GEM CARPET CLEANING LLC,02/15/2023,02/15/2025,6203 137TH ST E,PUYALLUP,WA,98373,,,
604 780 881,TRC CLEANING,06/07/2022,06/07/2024,19006 79TH AVE CT E,PUYALLUP,WA,98375,,,
603 214 103,TOUGH GIRL CLEANING CO,08/09/2013,08/11/2019,11401 E 4TH AVE #12,SPOKANE VALLEY,WA,99206,,,
604 808 011,TRAILHEAD CITY WINDOW CLEANING,01/09/2023,01/09/2025,1118 7TH AVE NW,ISSAQUAH,WA,98027,,,
601 879 816,TRUSTY DRYER VENT CLEANING,01/23/2008,09/22/2022,2441 Valencia St,BELLINGHAM,WA,98229,,,
603 168 835,Ridgetop Window Cleaning,04/18/2013,04/18/2019,10995 Lobelia Ave.,SILVERDALE,WA,98383,,,
604 331 030,STEADFAST CLEAN & DETAIL,11/08/2018,11/08/2020,112 E ROCKWOOD BLVD #12,SPOKANE,WA,99202,,,
604 963 350,STEAMDRY CARPET CLEANING ACA,08/29/2022,08/29/2024,5318 NE 4TH ST,RENTON,WA,98059,,,
604 353 386,TWO SIX WINDOW CLEANING,05/01/2019,05/01/2021,607 S Franklin Ave,WENATCHEE,WA,98801,,,
604 846 259,VALLEY CHIMNEY CLEANING,01/13/2022,01/13/2024,38275 SE FIR ST,SNOQUALMIE,WA,98065,,,
603 606 028,SUPERIOR ROOF CLEANING,04/07/2016,04/07/2018,10114 218th Ave Ct E,BONNEY LAKE,WA,98391,,,
604 754 458,SUPERIOR SURFACE CLEANING,04/06/2023,04/06/2025,15210 179TH AVE SE,MONROE,WA,98272,,,
604 544 043,SUPERIOR CLEAN JANITORIAL SVCS,01/19/2021,01/19/2023,1221 COTTONWOOD DR,RICHLAND,WA,99354,,,
603 338 519,SUNCO WINDOW CLEANING LLC,11/28/2018,11/28/2024,PO BOX 135,MILTON,WA,98354,,,
603 284 937,SUPERIOR CARPET CLEANING,06/21/2017,06/21/2019,514 MARJO ST,WENATCHEE,WA,98801,,,
604 810 232,SWIFT CLEANING SPCLST SERV LLC,11/19/2021,11/19/2025,2000 NE 112TH AVE,VANCOUVER,WA,98684,,,
604 535 926,T L B WINDOW CLEANING,01/01/2020,01/01/2022,4405 DELPHI RD SW,OLYMPIA,WA,98512,,,
603 520 433,TNT WINDOW CLEANING LLC,07/14/2015,07/14/2017,26524 MANCHESTER AVE,KENT,WA,98032,,,
601 744 201,TECHNIQUE CLEAN/ GENERAL CONST,09/04/2018,09/04/2020,9305 9TH AVE CT E,TACOMA,WA,98445,,,
604 003 144,TAC PAINTING & CLEANING LLC,06/27/2016,07/04/2023,7702 S CHICAGO CT,SEATTLE,WA,98118,,,
602 005 097,TCB STEAM CLEANING INC,11/14/2011,11/14/2021,29336 40TH AVE S,AUBURN,WA,98001,,,
604 576 044,SR CLEAN CONSTRUCTION LLC,03/05/2020,03/05/2024,4116 NE 10TH ST,RENTON,WA,98059,,,
602 631 508,SO FRESH & SO CLEAN,02/05/2007,02/15/2017,PO Box 33072,FT LEWIS,WA,98433,,,
605 018 061,SOUND CHIMNEYS MASONRY & CLEAN,01/30/2023,01/30/2025,17833 SPRUCE WAY,LYNNWOOD,WA,98037,,,
603 282 023,SO CLEAN & GREEN LLC,06/15/2016,07/27/2024,1729 W Railroad Ave,SHELTON,WA,98584,,,
604 054 564,SKYLINE PRO CLEANING LLC,05/16/2017,05/16/2019,7033 STONE ST,LACEY,WA,98513,,,
604 924 272,SMART CLEANING,11/10/2022,11/10/2024,11317 148TH AVE SE,RENTON,WA,98059,,,
604 530 255,SPARKLING CLEANING SOLUTIONS,11/27/2019,11/27/2021,21427 DAMSON RD,BOTHELL,WA,98021,,,
604 609 087,NORTHSIDE CLEAN CONST LLC,09/14/2020,09/14/2022,7014 N Walnut Rd,SPOKANE,WA,99217,,,
604 756 468,LONGVIEW CHIMNEY CLEANING & RE,06/18/2021,06/21/2025,3601 OAK ST,LONGVIEW,WA,98632,,,
604 023 351,STAEPPEN CLEAN,06/08/2018,06/08/2020,25235 SE Klahanie Blvd #A104,ISSAQUAH,WA,98029,,,
604 713 419,SPRAY & WASH EXT CLEANING LLC,04/19/2021,04/19/2023,9232 NE 148TH CT,BOTHELL,WA,98011,,,
605 003 164,NORTHWEST EXTREME CLEAN,01/30/2023,01/30/2025,303 S ENNIS ST,PORT ANGELES,WA,98362,,,
603 485 158,SALMON BAY WINDOW CLEANING LLC,03/24/2015,04/14/2025,1420 NW GILMAN BLVD #2615,ISSAQUAH,WA,98027,,,
604 860 898,SASWASH CLEANING LLC,08/15/2022,08/15/2024,12839 NE 144TH WAY,Kirkland,WA,98034,,,
603 572 330,RPM CLEANING ENTERPRISES LLC,01/12/2016,01/12/2018,19102 20TH DR SE UNIT# I-102,BOTHELL,WA,98012,,,
605 340 147,RIVERAS CLEANING LLC,10/11/2023,10/11/2025,8411 8TH AVE W. APT 4,EVERETT,WA,98208,,,
603 287 222,R n D Window & Gutter Cleaning,05/24/2013,06/23/2025,PO BOX 73218,PUYALLUP,WA,98373,,,
603 402 945,SCHROEDERS CLEANING & GEN SRVS,06/04/2015,06/04/2017,PO BOX 353,CHINOOK,WA,98614,,,
,,,,,,,,,,
604 858 730,SIMPLY SHINE CLEANING CO LLC,01/25/2023,01/25/2025,509 AUSTIN DR,WEST RICHLAND,WA,99353,,,
604 271 767,SERENITY COMMERCIAL CLEANING,05/31/2018,05/31/2020,2827 CLARE AVE,BREMERTON,WA,98310,,,
604 800 353,SEAGATE RENOVATIONS & CLEANING,10/20/2021,10/20/2023,144 Seagate St SW,OCEAN SHORES,WA,98569,,,
603 064 492,SEATTLE GUTTER CLEANING LLC,04/13/2011,04/13/2017,7116 GREENWOOD AVE N #203,SEATTLE,WA,98103,,,
604 753 908,RC CLEANING LLC,08/10/2021,08/10/2023,21244 29th Ave South,SEATTLE,WA,98198,,,
604 207 893,REACT HVAC CLEANING LLC,02/15/2019,02/15/2021,1869 E Seltice Way #341,POST FALLS,ID,83854,,,
604 976 264,RAPMARY CLEANING/HDYMN SVC LLC,10/12/2022,10/12/2024,3235 WRIGHT AVE,BREMERTON,WA,98310,,,
604 998 331,RAIN & SHINE GNRL CLEANING LLC,04/07/2023,04/07/2025,4248 A ST TRLR 633,AUBURN,WA,98002,,,
604 795 217,RAPID RESPONSE BIO CLEAN INC,10/04/2021,10/04/2025,7600 SE JOHNSON CREEK BLVD,PORTLAND,OR,97206,,,
604 638 762,REDDS PAINT AND CLEAN,10/30/2020,10/30/2022,P.O. BOX 254675,SACRAMENTO,CA,95865,,,
604 171 351,NORTHWEST ECO CLEANING,11/02/2017,11/05/2023,6870 62ND AVE NE # 1113,SEATTLE,WA,98115,,,
602 089 057,PENINSULA PRESSURE CLEAN,12/06/2017,12/06/2021,POBOX 207,LONG BEACH,WA,98631,,,
603 435 016,Pig Pens Cleaning Solutins LLC,11/24/2015,11/24/2017,5726 School St Ne,BREMERTON,WA,98311,,,
603 436 583,REEVES CARPET CLEANING LLC,10/03/2014,10/18/2018,PO BOX 4362,PASCO,WA,99302,,,
604 694 508,REN'S WINDOW CLEANING LLC,05/30/2023,05/30/2025,14923 SILVER FIRS DR,EVERETT,WA,98208,,,
604 332 748,PREMIER CLEANING CO LLC,09/28/2018,09/28/2020,7901 DELRIDGE WAY SW #23C,SEATTLE,WA,98106,,,
604 871 664,PRESTIGE WINDOW CLEANING LLC,03/08/2023,03/08/2025,718 2ND AVE N,KENT,WA,98032,,,
602 921 592,pipeline video & clean n inc,05/21/2009,07/11/2017,2212 port of tacoma rd,TACOMA,WA,98421,,,
601 565 851,PIK-MI CLEANING,07/28/2021,07/28/2023,10071 S NACHES RD,NACHES,WA,98937,,,
604 198 731,PINEBROOK CLEANING LLC,01/15/2020,01/15/2022,"126 SW 148th St, Ste C360",BURIEN,WA,98168,,,
603 475 013,PUGET SOUND CLEAN CONST LLC,02/10/2015,02/10/2017,11533 SE 318TH PL,AUBURN,WA,98092,,,
601 676 373,QUALITY ROOFING/CLEANING SRVCS,09/28/2016,09/28/2018,20823 STATE RT 20,BURLINGTON,WA,98233,,,
602 187 261,QUICK-N-CLEAN PRSSR WSHNG INC,11/03/2009,11/21/2019,7005 NE 40th Ave,VANCOUVER,WA,98661,,,
604 117 754,QUALITY ROOF & GUTTER CLEANING,08/24/2017,08/24/2019,16 Lapsley Dr.,DUPONT,WA,98327,,,
603 490 023,PURITY CLEANING COMPANY,04/09/2015,04/09/2017,1500 E COLLEGE WAY STE A,MOUNT VERNON,WA,98273,,,
603 441 744,QUALITY CLEANING,03/03/2015,12/09/2024,PO BOX 1381,Yakima,WA,98907,,,
603 419 941,PEAK OF PERFEC ROOF CLEAN & MB,03/07/2017,03/07/2019,4826 Lookout Ave,BELLINGHAM,WA,98229,,,
603 265 411,PACIFIC EXTERIOR CLEANING,03/18/2013,03/18/2025,7511 S Welcome Rd,MEDICAL LAKE,WA,99022,,,
604 575 271,PALOUSE CLEANING LLC,04/17/2020,04/17/2024,951 Carroll Rd,COLFAX,WA,99111,,,
604 653 824,PACIFIC CLEANING LLC,08/31/2023,08/31/2025,1042 MOBILE LANE,FERNDALE,WA,98248,,,
604 725 814,OLY'S GENERAL CLEANING LLC,04/27/2021,04/27/2023,401 37TH SE SE,AUBURN,WA,98002,,,
604 672 825,OUTSHINE WINDOW CLEANING LLC,03/14/2023,03/14/2025,1528 N CAMBRIAN AVE,BREMERTON,WA,98312,,,
605 076 164,PEACHY CLEANING CO,03/24/2023,03/24/2025,144 DAISY LN,SEQUIM,WA,98382,,,
604 794 450,S&R CLEANING,08/31/2021,08/31/2023,10103 N Whittier,SPOKANE,WA,99218,,,
604 174 284,RISE 'N SHINE CLEANING SVCS,10/04/2017,10/04/2021,1901 Merrill Creek Parkway,EVERETT,WA,98203,,,
604 085 970,RICKY'S CLEANING,03/02/2017,03/02/2023,1500 Sandoz Rd #21,NEWBERG,OR,97132,,,
604 598 750,PEAK PERFORMANCE CLEAN & MAINT,03/16/2022,03/16/2024,PO BOX 391,PUYALLUP,WA,98371,,,
603 474 240,OLD SCHOOL POWER CLEANING,03/27/2015,03/27/2017,21101 121ST AVE SE,SNOHOMISH,WA,98296,,,
603 556 868,NORTHPEAK ROOF CLEANING LLC,03/09/2016,03/22/2022,13401 DANA LN E,PUYALLUP,WA,98373,,,
603 194 568,NORTHSOUND TAP CLEANING INC,01/10/2017,01/10/2021,PO Box 1972,FERNDALE,WA,98248,,,
604 857 797,NORTHWEST PRO CLEANING LLC,07/25/2022,07/25/2024,964 HOMESTEAD DR,BURLINGTON,WA,98233,,,
602 730 936,Rental Cleaning & Paintng Sers,12/27/2010,12/27/2016,2722 North Gary Lauri Ct,SPOKANE,WA,99206,,,
604 032 616,NORTHWEST HYDRO-CLEAN LLC,09/23/2016,09/23/2018,PO BOX 122,BATTLE GROUND,WA,98604,,,
604 710 485,NORTHWEST WINDOW CLEANING BHAM,03/05/2021,04/07/2025,4600 Guide Meridian,Bellingham,WA,98226,,,
604 926 633,NW PRO CLEAN LLC,06/02/2022,06/02/2024,7027 Autumn Ave SE,SNOQUALMIE,WA,98065,,,
604 725 750,OLYMPIC ROOF CLEANING,11/30/2021,11/30/2025,PO BOX 982,CHIMACUM,WA,98325,,,
605 256 202,PENA CLEANING & LANDSCAPNG LLC,06/02/2023,06/02/2025,3001 S 288TH ST TRLR 262,FEDERAL WAY,WA,98003,,,
603 180 841,NORTHWEST WINDOW CLEANING LLC,07/16/2012,07/16/2018,108 Factory AVE N Ste 2B,RENTON,WA,98057,,,
